placekey,location_name,brand_id,latitude,longitude,tract,county,city
222-222@3x4-qbc-9cq,Subway,SG_BRAND_de80593878cb1673c62a7f338dc7e4e1,48.676598,-116.333234,16021970200,16021,Bonners Ferry
222-222@5q6-762-z2k,McDonald's,SG_BRAND_5179b21fc1d50950b99b4eecaa48c614,39.999458,-105.255144,08013012511,08013,Boulder
222-222@5q6-78b-h5z,McDonald's,SG_BRAND_5179b21fc1d50950b99b4eecaa48c614,40.019303,-105.257953,08013012203,08013,Boulder
222-222@5q6-796-nyv,McDonald's,SG_BRAND_5179b21fc1d50950b99b4eecaa48c614,39.884715,-105.021464,08001009321,08001,Federal Heights
222-222@5q6-79n-mzf,Subway,SG_BRAND_de80593878cb1673c62a7f338dc7e4e1,39.82923,-105.024435,08001009501,08001,Westminster
222-222@5q6-7cv-bhq,McDonald's,SG_BRAND_5179b21fc1d50950b99b4eecaa48c614,39.92356,-105.091318,08014031200,08014,Broomfield
222-222@5q7-6m2-575,McDonald's,SG_BRAND_5179b21fc1d50950b99b4eecaa48c614,40.575039,-105.099991,08069000503,08069,Fort Collins
222-222@5q8-tyb-wx5,McDonald's,SG_BRAND_5179b21fc1d50950b99b4eecaa48c614,37.170491,-104.509719,08071000200,08071,Trinidad
222-222@5q9-6pn-cnq,McDonald's,SG_BRAND_5179b21fc1d50950b99b4eecaa48c614,39.380035,-104.866364,08035014403,08035,Castle Rock
222-222@5q9-bg4-q9f,Subway,SG_BRAND_de80593878cb1673c62a7f338dc7e4e1,39.765774,-104.902015,08031004107,08031,Denver
222-222@5qc-w6w-cnq,McDonald's,SG_BRAND_5179b21fc1d50950b99b4eecaa48c614,40.609837,-111.940678,49035112907,49035,West Jordan
222-222@5qc-wpd-52k,McDonald's,SG_BRAND_5179b21fc1d50950b99b4eecaa48c614,40.733905,-111.938276,49035102802,49035,Salt Lake City
222-222@5qc-x2b-kxq,McDonald's,SG_BRAND_5179b21fc1d50950b99b4eecaa48c614,40.387785,-111.836194,49049000103,49049,Lehi
222-222@5qd-2gz-s89,Subway,SG_BRAND_de80593878cb1673c62a7f338dc7e4e1,41.186955,-111.985735,49057210511,49057,Riverdale
222-222@5qd-376-zs5,McDonald's,SG_BRAND_5179b21fc1d50950b99b4eecaa48c614,40.725888,-111.900254,49035102900,49035,Salt Lake City
222-222@5qd-r3f-975,Subway,SG_BRAND_de80593878cb1673c62a7f338dc7e4e1,37.255752,-107.075842,08007974200,08007,Pagosa Springs
222-222@5qf-km5-bx5,Subway,SG_BRAND_de80593878cb1673c62a7f338dc7e4e1,39.044025,-108.554157,08077001301,08077,Grand Junction
222-222@5qf-mbh-yn5,McDonald's,SG_BRAND_5179b21fc1d50950b99b4eecaa48c614,38.748456,-108.071356,08029965100,08029,Delta
222-222@5qf-s59-ht9,McDonald's,SG_BRAND_5179b21fc1d50950b99b4eecaa48c614,39.152288,-108.738783,08077001501,08077,Fruita
222-222@5qh-f2m-3nq,McDonald's,SG_BRAND_5179b21fc1d50950b99b4eecaa48c614,42.852297,-106.27166,56025000502,56025,Casper
222-222@5qh-fb9-n89,Subway,SG_BRAND_de80593878cb1673c62a7f338dc7e4e1,42.852245,-106.325523,56025000200,56025,Casper
222-222@5qk-jmc-nkf,McDonald's,SG_BRAND_5179b21fc1d50950b99b4eecaa48c614,40.396401,-104.75561,08123001409,08123,Greeley
222-222@5qk-k85-575,McDonald's,SG_BRAND_5179b21fc1d50950b99b4eecaa48c614,39.886266,-104.882408,08001008535,08001,Commerce City
222-222@5qm-f4g-x89,Subway,SG_BRAND_de80593878cb1673c62a7f338dc7e4e1,40.970343,-102.24841,08115968300,08115,Julesburg
222-222@5sy-4gy-6tv,McDonald's,SG_BRAND_5179b21fc1d50950b99b4eecaa48c614,44.774022,-106.943193,56033000100,56033,Sheridan
222-222@5w9-hnw-2p9,Subway,SG_BRAND_de80593878cb1673c62a7f338dc7e4e1,43.61999,-116.370964,16001010333,16001,Meridian
222-222@5w9-j6b-5s5,Subway,SG_BRAND_de80593878cb1673c62a7f338dc7e4e1,43.582736,-116.568094,16027020100,16027,Nampa
222-222@5w9-jd9-nt9,McDonald's,SG_BRAND_5179b21fc1d50950b99b4eecaa48c614,43.542316,-116.154948,16001010503,16001,Boise
222-222@5wq-s83-b6k,McDonald's,SG_BRAND_5179b21fc1d50950b99b4eecaa48c614,42.559922,-113.793932,16067970200,16067,Burley
222-222@5wr-bbs-fvf,McDonald's,SG_BRAND_5179b21fc1d50950b99b4eecaa48c614,43.195864,-112.360204,16011950500,16011,Blackfoot
222-222@5wr-gg5-3h5,McDonald's,SG_BRAND_5179b21fc1d50950b99b4eecaa48c614,42.859321,-112.435509,16005000800,16005,Pocatello
222-222@5ws-h43-35z,McDonald's,SG_BRAND_5179b21fc1d50950b99b4eecaa48c614,41.832922,-111.832339,49005000202,49005,Smithfield
222-223@5q6-r63-pgk,Subway,SG_BRAND_de80593878cb1673c62a7f338dc7e4e1,39.659381,-106.82588,08037000403,08037,Eagle
222-223@5q9-b6h-9xq,Subway,SG_BRAND_de80593878cb1673c62a7f338dc7e4e1,39.534719,-105.011096,08035014128,08035,Highlands Ranch
222-223@5q9-b99-vfz,Subway,SG_BRAND_de80593878cb1673c62a7f338dc7e4e1,39.47082,-104.875685,08035014122,08035,Castle Pines
222-223@5qd-22p-f75,Subway,SG_BRAND_de80593878cb1673c62a7f338dc7e4e1,41.140766,-112.065044,49011125303,49011,Clinton
222-224@3x5-4my-g8v,Subway,SG_BRAND_de80593878cb1673c62a7f338dc7e4e1,47.703642,-116.8065,16055000900,16055,Coeur D Alene
222-224@5q9-4sp-rzf,Subway,SG_BRAND_de80593878cb1673c62a7f338dc7e4e1,39.393477,-104.754398,08035013909,08035,Franktown
222-224@5q9-9zr-fzz,Subway,SG_BRAND_de80593878cb1673c62a7f338dc7e4e1,39.710814,-104.940207,08005004952,08005,Glendale
222-224@5qf-knx-gkz,Subway,SG_BRAND_de80593878cb1673c62a7f338dc7e4e1,39.084266,-108.552015,08077000602,08077,Grand Junction
222-224@5qk-kqn-ch5,Subway,SG_BRAND_de80593878cb1673c62a7f338dc7e4e1,40.119802,-104.939922,08123002016,08123,Firestone
222-224@5wb-8k2-jy9,Subway,SG_BRAND_de80593878cb1673c62a7f338dc7e4e1,43.457137,-114.256625,16013960100,16013,Bellevue
222-224@5wf-zrh-bc5,Subway,SG_BRAND_de80593878cb1673c62a7f338dc7e4e1,44.079864,-111.454726,16043970200,16043,Ashton
222-224@5wr-gfw-y7q,Subway,SG_BRAND_de80593878cb1673c62a7f338dc7e4e1,42.887363,-112.450778,16005001300,16005,Pocatello
222-225@5q6-7qh-yjv,McDonald's,SG_BRAND_5179b21fc1d50950b99b4eecaa48c614,40.149713,-105.131473,08013013212,08013,Longmont
222-225@5q9-b3r-rp9,Subway,SG_BRAND_de80593878cb1673c62a7f338dc7e4e1,39.490891,-104.7309,08035013911,08035,Parker
222-226@5q9-bkg-h89,Subway,SG_BRAND_de80593878cb1673c62a7f338dc7e4e1,39.652526,-104.771637,08005084300,08005,Aurora
223-222@5q6-3xk-hqz,McDonald's,SG_BRAND_5179b21fc1d50950b99b4eecaa48c614,39.7395,-105.197364,08059010000,08059,Golden
223-222@5q6-79b-wff,McDonald's,SG_BRAND_5179b21fc1d50950b99b4eecaa48c614,39.914719,-105.057192,08014030300,08014,Broomfield
223-222@5q9-6pn-mkz,Subway,SG_BRAND_de80593878cb1673c62a7f338dc7e4e1,39.367466,-104.859208,08035014504,08035,Castle Rock
223-222@5q9-7fn-fpv,Subway,SG_BRAND_de80593878cb1673c62a7f338dc7e4e1,38.742453,-104.737866,08041004501,08041,Fountain
223-222@5q9-9z6-4gk,McDonald's,SG_BRAND_5179b21fc1d50950b99b4eecaa48c614,39.638083,-104.791849,08005084600,08005,Aurora
223-222@5q9-9zd-89z,McDonald's,SG_BRAND_5179b21fc1d50950b99b4eecaa48c614,39.653571,-104.776844,08005083300,08005,Aurora
223-222@5q9-b88-8gk,McDonald's,SG_BRAND_5179b21fc1d50950b99b4eecaa48c614,39.602015,-104.987567,08005005611,08005,Centennial
223-222@5q9-bfk-xyv,McDonald's,SG_BRAND_5179b21fc1d50950b99b4eecaa48c614,39.777785,-104.978736,08031001500,08031,Denver
223-222@5q9-bqr-d7q,McDonald's,SG_BRAND_5179b21fc1d50950b99b4eecaa48c614,39.710906,-104.987059,08031002901,08031,Denver
223-222@5q9-s7r-kj9,McDonald's,SG_BRAND_5179b21fc1d50950b99b4eecaa48c614,38.524493,-105.992841,08015000200,08015,Salida
223-222@5qb-fvc-49z,Subway,SG_BRAND_de80593878cb1673c62a7f338dc7e4e1,40.498999,-111.414068,49051960100,49051,Heber
223-222@5qc-w94-3bk,McDonald's,SG_BRAND_5179b21fc1d50950b99b4eecaa48c614,40.696965,-112.024207,49035113412,49035,West Valley City
223-222@5qd-2dm-sdv,Subway,SG_BRAND_de80593878cb1673c62a7f338dc7e4e1,40.985775,-111.906149,49011126202,49011,Farmington
223-222@5qg-52z-j9z,McDonald's,SG_BRAND_5179b21fc1d50950b99b4eecaa48c614,38.563303,-109.549835,49019000300,49019,Moab
223-222@5qh-fbf-kzz,Subway,SG_BRAND_de80593878cb1673c62a7f338dc7e4e1,42.828051,-106.355303,56025000901,56025,Casper
223-222@5sy-bxw-54v,Subway,SG_BRAND_de80593878cb1673c62a7f338dc7e4e1,44.517313,-109.054517,56029965500,56029,Cody
223-222@5w9-jbw-p5f,Subway,SG_BRAND_de80593878cb1673c62a7f338dc7e4e1,43.620832,-116.204335,16001000100,16001,Boise
223-222@5wg-42d-t35,McDonald's,SG_BRAND_5179b21fc1d50950b99b4eecaa48c614,43.482167,-112.020563,16019970900,16019,Idaho Falls
223-223@5q9-8qk-qpv,Subway,SG_BRAND_de80593878cb1673c62a7f338dc7e4e1,39.743609,-104.435554,08001008401,08001,Bennett
223-223@5qc-wcs-hh5,Subway,SG_BRAND_de80593878cb1673c62a7f338dc7e4e1,40.651599,-112.290895,49045130702,49045,Stansbury Park
223-223@5qd-sxg-m6k,Subway,SG_BRAND_de80593878cb1673c62a7f338dc7e4e1,37.298277,-107.847646,08067970800,08067,Durango
223-224@5q6-m2c-8y9,Subway,SG_BRAND_de80593878cb1673c62a7f338dc7e4e1,39.364352,-107.033423,08097000100,08097,Basalt
223-224@5q9-9z2-gzf,Subway,SG_BRAND_de80593878cb1673c62a7f338dc7e4e1,39.708239,-104.876576,08031007089,08031,Denver
223-225@5q9-b7v-rzf,Subway,SG_BRAND_de80593878cb1673c62a7f338dc7e4e1,39.655124,-105.081819,08059011729,08059,Lakewood
224-222@5q6-3xs-hqz,Subway,SG_BRAND_de80593878cb1673c62a7f338dc7e4e1,39.666869,-105.150806,08059011726,08059,Lakewood
224-222@5q7-zct-pd9,Subway,SG_BRAND_de80593878cb1673c62a7f338dc7e4e1,38.308551,-104.62156,08101002903,08101,Pueblo
224-222@5q9-7b5-7dv,Subway,SG_BRAND_de80593878cb1673c62a7f338dc7e4e1,38.851854,-104.869634,08041001301,08041,Colorado Springs
224-222@5q9-7f4-fvf,Subway,SG_BRAND_de80593878cb1673c62a7f338dc7e4e1,38.796852,-104.756931,08041006400,08041,Colorado Springs
224-222@5q9-b3f-j7q,McDonald's,SG_BRAND_5179b21fc1d50950b99b4eecaa48c614,39.534183,-104.794361,08035014005,08035,Parker
224-222@5q9-s7z-q4v,Subway,SG_BRAND_de80593878cb1673c62a7f338dc7e4e1,38.523858,-105.98921,08015000200,08015,Salida
224-222@5qb-9yg-zcq,McDonald's,SG_BRAND_5179b21fc1d50950b99b4eecaa48c614,40.120639,-111.639078,49049010304,49049,Spanish Fork
224-222@5qk-j6z-ct9,Subway,SG_BRAND_de80593878cb1673c62a7f338dc7e4e1,40.335271,-104.90663,08123002102,08123,Johnstown
224-222@5wc-cnt-jy9,Subway,SG_BRAND_de80593878cb1673c62a7f338dc7e4e1,46.732113,-117.004467,16057005100,16057,Moscow
224-222@5wr-ggq-bkz,Subway,SG_BRAND_de80593878cb1673c62a7f338dc7e4e1,42.899019,-112.432193,16005001101,16005,Pocatello
224-222@5ws-mk5-j7q,McDonald's,SG_BRAND_5179b21fc1d50950b99b4eecaa48c614,41.492221,-112.016479,49003960701,49003,Brigham City
224-224@5qk-jcs-6kz,Subway,SG_BRAND_de80593878cb1673c62a7f338dc7e4e1,40.187372,-105.10182,08013013503,08013,Longmont
225-222@5q6-79w-389,McDonald's,SG_BRAND_5179b21fc1d50950b99b4eecaa48c614,39.863124,-105.02458,08001009319,08001,Federal Heights
225-222@5qc-wr5-7wk,McDonald's,SG_BRAND_5179b21fc1d50950b99b4eecaa48c614,40.78429,-111.938402,49035100308,49035,Salt Lake City
225-222@5qc-xtd-btv,McDonald's,SG_BRAND_5179b21fc1d50950b99b4eecaa48c614,40.522807,-111.944816,49035113014,49035,Riverton
225-222@5qd-366-x3q,McDonald's,SG_BRAND_5179b21fc1d50950b99b4eecaa48c614,40.700294,-111.800262,49035110200,49035,Salt Lake City
226-222@5q9-bpz-y35,McDonald's,SG_BRAND_5179b21fc1d50950b99b4eecaa48c614,39.683219,-105.080781,08059011804,08059,Lakewood
226-222@5q9-bqm-ndv,McDonald's,SG_BRAND_5179b21fc1d50950b99b4eecaa48c614,39.740195,-104.98081,08031002601,08031,Denver
226-222@5qb-wyc-jd9,Subway,SG_BRAND_de80593878cb1673c62a7f338dc7e4e1,39.97594,-111.779388,49049010505,49049,Santaquin
226-222@5qc-xty-zpv,Subway,SG_BRAND_de80593878cb1673c62a7f338dc7e4e1,40.522798,-111.942222,49035113014,49035,Riverton
226-222@5qf-kyb-9mk,Subway,SG_BRAND_de80593878cb1673c62a7f338dc7e4e1,38.475706,-107.87365,08085966300,08085,Montrose
226-222@5qg-q9j-f75,Subway,SG_BRAND_de80593878cb1673c62a7f338dc7e4e1,42.762321,-105.404154,56009956500,56009,Douglas
226-222@5qh-656-z75,Subway,SG_BRAND_de80593878cb1673c62a7f338dc7e4e1,42.758405,-104.451606,56027957200,56027,Lusk
226-222@5qh-pqz-33q,Subway,SG_BRAND_de80593878cb1673c62a7f338dc7e4e1,42.05131,-104.961046,56031959400,56031,Wheatland
226-222@5wq-s89-ty9,Subway,SG_BRAND_de80593878cb1673c62a7f338dc7e4e1,42.525136,-113.792758,16031950300,16031,Burley
227-222@5qf-knx-pgk,McDonald's,SG_BRAND_5179b21fc1d50950b99b4eecaa48c614,39.077875,-108.551586,08077000602,08077,Grand Junction
227-222@5sy-4yw-xnq,Subway,SG_BRAND_de80593878cb1673c62a7f338dc7e4e1,44.35437,-106.693479,56019955200,56019,Buffalo
227-225@5q7-6kt-swk,Subway,SG_BRAND_de80593878cb1673c62a7f338dc7e4e1,40.554842,-105.097275,08069001110,08069,Fort Collins
228-222@5qh-fbj-9cq,Subway,SG_BRAND_de80593878cb1673c62a7f338dc7e4e1,42.848387,-106.299129,56025000300,56025,Casper
228-225@5q6-7cm-7yv,Subway,SG_BRAND_de80593878cb1673c62a7f338dc7e4e1,39.915574,-104.998639,08001060200,08001,Westminster
229-222@5w9-j6j-5xq,McDonald's,SG_BRAND_5179b21fc1d50950b99b4eecaa48c614,43.558019,-116.572136,16027020504,16027,Nampa
229-223@5q9-bqk-syv,Subway,SG_BRAND_de80593878cb1673c62a7f338dc7e4e1,39.740785,-104.990263,08031001702,08031,Denver
22b-222@5qd-sxk-kmk,Subway,SG_BRAND_de80593878cb1673c62a7f338dc7e4e1,37.286635,-107.876693,08067971000,08067,Durango
22c-222@5q8-5m4-k2k,Subway,SG_BRAND_de80593878cb1673c62a7f338dc7e4e1,38.716508,-104.700085,08041004503,08041,Fountain
22c-222@5q9-6zm-2tv,Subway,SG_BRAND_de80593878cb1673c62a7f338dc7e4e1,38.857634,-104.721368,08041005900,08041,Colorado Springs
22c-222@5q9-br5-6p9,Subway,SG_BRAND_de80593878cb1673c62a7f338dc7e4e1,39.764751,-105.141476,08059010503,08059,Wheat Ridge
22d-222@5w9-jbc-pgk,Subway,SG_BRAND_de80593878cb1673c62a7f338dc7e4e1,43.611888,-116.244089,16001002000,16001,Boise
22f-222@5qd-24d-47q,Subway,SG_BRAND_de80593878cb1673c62a7f338dc7e4e1,41.001405,-111.906589,49011126203,49011,Farmington
22g-222@5qc-xks-qzz,Subway,SG_BRAND_de80593878cb1673c62a7f338dc7e4e1,40.623569,-111.821955,49035111305,49035,Cottonwood Heights
22h-222@5qf-yxg-wkz,Subway,SG_BRAND_de80593878cb1673c62a7f338dc7e4e1,38.544783,-106.925919,08051963700,08051,Gunnison
22n-222@5q9-bfz-v75,Subway,SG_BRAND_de80593878cb1673c62a7f338dc7e4e1,39.739838,-104.939259,08031004301,08031,Denver
22r-222@5q9-6zv-3bk,Subway,SG_BRAND_de80593878cb1673c62a7f338dc7e4e1,38.880922,-104.757656,08041000101,08041,Colorado Springs
zzw-222@5q6-29f-5xq,McDonald's,SG_BRAND_5179b21fc1d50950b99b4eecaa48c614,39.922856,-105.787216,08049000202,08049,Winter Park
zzw-222@5q6-79k-4y9,McDonald's,SG_BRAND_5179b21fc1d50950b99b4eecaa48c614,39.848567,-104.995624,08001009306,08001,Thornton
zzw-222@5q6-7s7-hkf,Subway,SG_BRAND_de80593878cb1673c62a7f338dc7e4e1,39.997007,-104.973792,08001061200,08001,Thornton
zzw-222@5q7-zdf-6p9,Subway,SG_BRAND_de80593878cb1673c62a7f338dc7e4e1,38.331783,-104.745254,08101002913,08101,Pueblo West
zzw-222@5q7-zhz-hkf,McDonald's,SG_BRAND_5179b21fc1d50950b99b4eecaa48c614,38.272079,-104.618155,08101003500,08101,Pueblo
zzw-222@5q9-73k-kj9,Subway,SG_BRAND_de80593878cb1673c62a7f338dc7e4e1,38.94224,-104.722867,08041007101,08041,Colorado Springs
zzw-222@5q9-b7z-h5z,Subway,SG_BRAND_de80593878cb1673c62a7f338dc7e4e1,39.571849,-104.99043,08005005634,08005,Littleton
zzw-222@5q9-bf5-vj9,McDonald's,SG_BRAND_5179b21fc1d50950b99b4eecaa48c614,39.740581,-104.859773,08001007802,08001,Aurora
zzw-222@5q9-bfp-9vf,Subway,SG_BRAND_de80593878cb1673c62a7f338dc7e4e1,39.773132,-104.941381,08031003500,08031,Denver
zzw-222@5q9-bpc-t5f,Subway,SG_BRAND_de80593878cb1673c62a7f338dc7e4e1,39.718489,-105.131874,08059011733,08059,Lakewood
zzw-222@5q9-bqv-jvz,Subway,SG_BRAND_de80593878cb1673c62a7f338dc7e4e1,39.747646,-104.977211,08031002402,08031,Denver
zzw-222@5qc-w8d-bkz,McDonald's,SG_BRAND_5179b21fc1d50950b99b4eecaa48c614,40.651017,-111.938215,49035113515,49035,Taylorsville
zzw-222@5qc-w8g-4sq,Subway,SG_BRAND_de80593878cb1673c62a7f338dc7e4e1,40.642714,-111.88963,49035112202,49035,Murray
zzw-222@5qc-wpf-tvz,Subway,SG_BRAND_de80593878cb1673c62a7f338dc7e4e1,40.726782,-111.978061,49035114500,49035,Salt Lake City
zzw-222@5qc-x4m-p7q,Subway,SG_BRAND_de80593878cb1673c62a7f338dc7e4e1,40.431596,-111.785721,49049010219,49049,Highland
zzw-222@5qc-x6f-975,Subway,SG_BRAND_de80593878cb1673c62a7f338dc7e4e1,40.312728,-111.722096,49049000706,49049,Orem
zzw-222@5qc-xtr-z75,Subway,SG_BRAND_de80593878cb1673c62a7f338dc7e4e1,40.502489,-111.939422,49035113017,49035,Riverton
zzw-222@5qc-zyy-9fz,Subway,SG_BRAND_de80593878cb1673c62a7f338dc7e4e1,41.089788,-112.043406,49011125600,49011,Clearfield
zzw-222@5qd-22w-fj9,Subway,SG_BRAND_de80593878cb1673c62a7f338dc7e4e1,41.161914,-112.06534,49057210509,49057,Roy
zzw-222@5qd-34b-9fz,Subway,SG_BRAND_de80593878cb1673c62a7f338dc7e4e1,40.662988,-111.500149,49043964402,49043,Park City
zzw-222@5qk-8d7-cwk,Subway,SG_BRAND_de80593878cb1673c62a7f338dc7e4e1,40.080174,-102.225832,08125963100,08125,Wray
zzw-222@5qk-gcp-mzf,McDonald's,SG_BRAND_5179b21fc1d50950b99b4eecaa48c614,40.398644,-104.690648,08123000800,08123,Greeley
zzw-222@5qk-jmc-nt9,Subway,SG_BRAND_de80593878cb1673c62a7f338dc7e4e1,40.394916,-104.753964,08123001409,08123,Greeley
zzw-222@5qm-pxb-4qf,McDonald's,SG_BRAND_5179b21fc1d50950b99b4eecaa48c614,41.138069,-104.78607,56021000600,56021,Cheyenne
zzw-222@5qn-zry-vvf,Subway,SG_BRAND_de80593878cb1673c62a7f338dc7e4e1,41.617152,-109.23116,56037970800,56037,Rock Springs
zzw-222@5sy-q32-wkz,Subway,SG_BRAND_de80593878cb1673c62a7f338dc7e4e1,44.018249,-107.955559,56043000301,56043,Worland
zzw-222@5w9-hk9-ht9,McDonald's,SG_BRAND_5179b21fc1d50950b99b4eecaa48c614,43.663345,-116.411054,16001010331,16001,Eagle
zzw-222@5w9-hmx-ysq,Subway,SG_BRAND_de80593878cb1673c62a7f338dc7e4e1,43.604443,-116.415916,16001010334,16001,Meridian
zzw-222@5w9-pg7-68v,McDonald's,SG_BRAND_5179b21fc1d50950b99b4eecaa48c614,43.126152,-115.700528,16039960400,16039,Mountain Home
zzw-222@5wd-csh-xnq,McDonald's,SG_BRAND_5179b21fc1d50950b99b4eecaa48c614,46.413116,-117.001461,16069960300,16069,Lewiston
zzw-222@5wq-znt-r8v,McDonald's,SG_BRAND_5179b21fc1d50950b99b4eecaa48c614,42.924139,-114.940374,16047960100,16047,Bliss
zzw-222@5wr-7m8-5j9,McDonald's,SG_BRAND_5179b21fc1d50950b99b4eecaa48c614,42.567093,-114.460864,16083000800,16083,Twin Falls
zzw-222@5ws-hyw-249,Subway,SG_BRAND_de80593878cb1673c62a7f338dc7e4e1,42.093985,-111.877156,16041970200,16041,Preston
zzw-222@5ws-mrj-rp9,Subway,SG_BRAND_de80593878cb1673c62a7f338dc7e4e1,41.714998,-111.835738,49005001101,49005,Logan
zzw-222@5ws-n33-cyv,Subway,SG_BRAND_de80593878cb1673c62a7f338dc7e4e1,41.423476,-112.052084,49003960801,49003,Willard
zzw-223@5q6-75y-389,Subway,SG_BRAND_de80593878cb1673c62a7f338dc7e4e1,40.014073,-105.229501,08013012603,08013,Boulder
zzw-223@5q9-4wb-b8v,Subway,SG_BRAND_de80593878cb1673c62a7f338dc7e4e1,39.435996,-104.755109,08035013909,08035,The Pinery
zzw-223@5q9-6z6-28v,McDonald's,SG_BRAND_5179b21fc1d50950b99b4eecaa48c614,38.901877,-104.768196,08041004800,08041,Colorado Springs
zzw-223@5q9-738-4jv,Subway,SG_BRAND_de80593878cb1673c62a7f338dc7e4e1,38.926851,-104.72206,08041004706,08041,Colorado Springs
zzw-223@5q9-9z6-45f,Subway,SG_BRAND_de80593878cb1673c62a7f338dc7e4e1,39.637208,-104.791749,08005084600,08005,Aurora
zzw-223@5q9-b48-p35,Subway,SG_BRAND_de80593878cb1673c62a7f338dc7e4e1,39.602364,-104.709628,08005007107,08005,Aurora
zzw-223@5q9-b7k-wtv,Subway,SG_BRAND_de80593878cb1673c62a7f338dc7e4e1,39.624483,-105.022937,08005005553,08005,Littleton
zzw-223@5qd-2j8-jn5,Subway,SG_BRAND_de80593878cb1673c62a7f338dc7e4e1,41.307071,-112.021963,49057210304,49057,Farr West
zzw-223@5qf-5bh-f2k,Subway,SG_BRAND_de80593878cb1673c62a7f338dc7e4e1,37.624674,-109.478494,49037978200,49037,Blanding
zzw-223@5qf-ky9-qxq,McDonald's,SG_BRAND_5179b21fc1d50950b99b4eecaa48c614,38.484493,-107.86992,08085966300,08085,Montrose
zzw-223@5w9-jbr-4sq,Subway,SG_BRAND_de80593878cb1673c62a7f338dc7e4e1,43.581292,-116.172833,16001000805,16001,Boise
zzw-224@3x5-43v-kfz,Subway,SG_BRAND_de80593878cb1673c62a7f338dc7e4e1,47.711304,-116.996854,16055000401,16055,Post Falls
zzw-224@5q9-72y-pvz,Subway,SG_BRAND_de80593878cb1673c62a7f338dc7e4e1,38.957984,-104.76682,08041007000,08041,Colorado Springs
zzw-224@5qk-jcv-6hq,Subway,SG_BRAND_de80593878cb1673c62a7f338dc7e4e1,40.187814,-105.074613,08013013507,08013,Longmont
zzw-224@5wr-7m8-6kz,Subway,SG_BRAND_de80593878cb1673c62a7f338dc7e4e1,42.570653,-114.457056,16083000200,16083,Twin Falls
zzw-225@5q6-7m5-cwk,Subway,SG_BRAND_de80593878cb1673c62a7f338dc7e4e1,39.812332,-105.135768,08059010306,08059,Arvada
zzw-225@5q9-7f4-mx5,Subway,SG_BRAND_de80593878cb1673c62a7f338dc7e4e1,38.81208,-104.746614,08041006302,08041,Colorado Springs
zzw-225@5qc-bjs-6kz,Subway,SG_BRAND_de80593878cb1673c62a7f338dc7e4e1,41.268798,-110.940784,56041975400,56041,Evanston
zzw-225@5qc-zy2-kj9,Subway,SG_BRAND_de80593878cb1673c62a7f338dc7e4e1,41.113007,-111.984058,49011125200,49011,Hill AFB
zzw-229@5qd-37k-x89,Subway,SG_BRAND_de80593878cb1673c62a7f338dc7e4e1,40.625174,-111.853872,49035111202,49035,Cottonwood Heights
zzw-22b@5q6-7bz-f75,Subway,SG_BRAND_de80593878cb1673c62a7f338dc7e4e1,39.930606,-105.014691,08001060100,08001,Westminster
zzw-22b@5qd-38z-nh5,Subway,SG_BRAND_de80593878cb1673c62a7f338dc7e4e1,40.767428,-111.891738,49035114000,49035,Salt Lake City
zzw-22c@5q6-3xk-y7q,Subway,SG_BRAND_de80593878cb1673c62a7f338dc7e4e1,39.740976,-105.19957,08059010000,08059,Golden
zzw-22f@5q9-7g6-hyv,Subway,SG_BRAND_de80593878cb1673c62a7f338dc7e4e1,38.836529,-104.82307,08041002300,08041,Colorado Springs
zzy-222@3x5-4mz-t9z,McDonald's,SG_BRAND_5179b21fc1d50950b99b4eecaa48c614,47.700392,-116.788048,16055000900,16055,Coeur D Alene
zzy-222@5q7-yxr-49z,Subway,SG_BRAND_de80593878cb1673c62a7f338dc7e4e1,38.257715,-104.619264,08101001900,08101,Pueblo
zzy-222@5q8-5wk-wp9,Subway,SG_BRAND_de80593878cb1673c62a7f338dc7e4e1,38.129986,-104.017931,08089968000,08089,Fowler
zzy-222@5q8-63x-85f,Subway,SG_BRAND_de80593878cb1673c62a7f338dc7e4e1,38.236781,-104.3495,08101003200,08101,Avondale
zzy-222@5q9-59s-26k,Subway,SG_BRAND_de80593878cb1673c62a7f338dc7e4e1,38.838894,-104.390001,08041004601,08041,Ellicott
zzy-222@5q9-7cd-6p9,Subway,SG_BRAND_de80593878cb1673c62a7f338dc7e4e1,38.754926,-104.788022,08041004402,08041,Fort Carson
zzy-222@5q9-82f-6hq,Subway,SG_BRAND_de80593878cb1673c62a7f338dc7e4e1,39.739011,-104.329531,08001008402,08001,Strasburg
zzy-222@5q9-k4r-26k,Subway,SG_BRAND_de80593878cb1673c62a7f338dc7e4e1,38.487215,-102.785684,08061960100,08061,Eads
zzy-222@5qc-w6t-7bk,Subway,SG_BRAND_de80593878cb1673c62a7f338dc7e4e1,40.586492,-111.985539,49035113102,49035,West Jordan
zzy-222@5qf-mbh-9cq,Subway,SG_BRAND_de80593878cb1673c62a7f338dc7e4e1,38.74655,-108.071365,08029965100,08029,Delta
zzy-222@5qk-jcc-rx5,Subway,SG_BRAND_de80593878cb1673c62a7f338dc7e4e1,40.159885,-104.981655,08123002010,08123,Longmont
zzy-222@5w9-pvw-sqz,Subway,SG_BRAND_de80593878cb1673c62a7f338dc7e4e1,43.141177,-115.660886,16039960300,16039,Mountain Home
zzy-222@5wq-znk-s3q,Subway,SG_BRAND_de80593878cb1673c62a7f338dc7e4e1,42.924109,-114.940427,16047960100,16047,Bliss
zzy-222@5yz-3fk-6c5,McDonald's,SG_BRAND_5179b21fc1d50950b99b4eecaa48c614,38.75373,-112.086616,49041975400,49041,Richfield
zzy-223@5q6-5y3-x89,Subway,SG_BRAND_de80593878cb1673c62a7f338dc7e4e1,39.5887,-106.095569,08117000300,08117,Frisco
zzy-223@5q8-h6q-fmk,Subway,SG_BRAND_de80593878cb1673c62a7f338dc7e4e1,37.990946,-103.569465,08089968300,08089,La Junta
zzy-223@5q9-nzj-qcq,Subway,SG_BRAND_de80593878cb1673c62a7f338dc7e4e1,38.834363,-106.128371,08015000401,08015,Buena Vista
zzy-223@5yy-b73-9j9,Subway,SG_BRAND_de80593878cb1673c62a7f338dc7e4e1,37.19846,-112.991478,49053270100,49053,Springdale
zzy-224@5q8-nm5-4qf,Subway,SG_BRAND_de80593878cb1673c62a7f338dc7e4e1,37.272614,-105.96207,08021974900,08021,La Jara
zzy-224@5r9-hm6-3bk,Subway,SG_BRAND_de80593878cb1673c62a7f338dc7e4e1,38.052928,-102.121748,08099000600,08099,Holly
zzy-22b@5q6-59w-dgk,McDonald's,SG_BRAND_5179b21fc1d50950b99b4eecaa48c614,39.627213,-106.064553,08117000200,08117,Silverthorne
zzy-22b@5qd-sj7-mtv,Subway,SG_BRAND_de80593878cb1673c62a7f338dc7e4e1,37.115308,-107.632881,08067940300,08067,Ignacio
zzy-22t@5q6-58k-5s5,Subway,SG_BRAND_de80593878cb1673c62a7f338dc7e4e1,39.485364,-106.04644,08117000401,08117,Breckenridge
222-222@3x5-8by-5vf,McDonald's,SG_BRAND_5179b21fc1d50950b99b4eecaa48c614,47.816911,-116.882179,16055000302,16055,Rathdrum
222-222@5q5-tfg-zcq,McDonald's,SG_BRAND_5179b21fc1d50950b99b4eecaa48c614,40.513733,-107.560571,08081000400,08081,Craig
222-222@5q6-79s-x5z,McDonald's,SG_BRAND_5179b21fc1d50950b99b4eecaa48c614,39.854608,-104.977336,08001009001,08001,Thornton
222-222@5q6-7cf-qzz,McDonald's,SG_BRAND_5179b21fc1d50950b99b4eecaa48c614,39.88109,-104.978593,08001009203,08001,Thornton
222-222@5q6-7cg-jgk,McDonald's,SG_BRAND_5179b21fc1d50950b99b4eecaa48c614,39.914559,-104.979656,08001008529,08001,Thornton
222-222@5q6-7cs-4n5,McDonald's,SG_BRAND_5179b21fc1d50950b99b4eecaa48c614,39.929628,-105.129361,08014031100,08014,Broomfield
222-222@5q6-7m8-t7q,McDonald's,SG_BRAND_5179b21fc1d50950b99b4eecaa48c614,39.813012,-105.166721,08059009838,08059,Arvada
222-222@5q7-9ng-dqf,McDonald's,SG_BRAND_5179b21fc1d50950b99b4eecaa48c614,41.308642,-105.618011,56001962800,56001,Laramie
222-222@5q7-byv-87q,McDonald's,SG_BRAND_5179b21fc1d50950b99b4eecaa48c614,41.10014,-104.853705,56021001902,56021,Cheyenne
222-222@5q7-c2f-249,Subway,SG_BRAND_de80593878cb1673c62a7f338dc7e4e1,41.117715,-104.80486,56021000402,56021,Cheyenne
222-222@5q9-9zk-wx5,McDonald's,SG_BRAND_5179b21fc1d50950b99b4eecaa48c614,39.678774,-104.915106,08031005200,08031,Denver
222-222@5q9-b3w-hkf,McDonald's,SG_BRAND_5179b21fc1d50950b99b4eecaa48c614,39.517484,-104.764231,08035013905,08035,Parker
222-222@5q9-b6x-6x5,McDonald's,SG_BRAND_5179b21fc1d50950b99b4eecaa48c614,39.580156,-105.134185,08059012024,08059,Littleton
222-222@5q9-bfr-brk,McDonald's,SG_BRAND_5179b21fc1d50950b99b4eecaa48c614,39.806516,-104.929686,08001008709,08001,Commerce City
222-222@5q9-bnw-jy9,McDonald's,SG_BRAND_5179b21fc1d50950b99b4eecaa48c614,39.681969,-105.025595,08031004603,08031,Denver
222-222@5q9-bpk-b6k,Subway,SG_BRAND_de80593878cb1673c62a7f338dc7e4e1,39.739817,-105.118768,08059010902,08059,Lakewood
222-222@5qc-xmh-8n5,McDonald's,SG_BRAND_5179b21fc1d50950b99b4eecaa48c614,40.581574,-111.872726,49035112700,49035,Sandy
222-222@5qc-xmp-vzz,Subway,SG_BRAND_de80593878cb1673c62a7f338dc7e4e1,40.621261,-111.912405,49035112403,49035,Midvale
222-222@5qc-xvg-5cq,McDonald's,SG_BRAND_5179b21fc1d50950b99b4eecaa48c614,40.537702,-112.020766,49035115209,49035,South Jordan
222-222@5qc-zy7-47q,Subway,SG_BRAND_de80593878cb1673c62a7f338dc7e4e1,41.082466,-111.973,49011125805,49011,Layton
222-222@5qc-zzk-33q,Subway,SG_BRAND_de80593878cb1673c62a7f338dc7e4e1,41.060795,-111.985764,49011126002,49011,Layton
222-222@5qd-3pp-7h5,McDonald's,SG_BRAND_5179b21fc1d50950b99b4eecaa48c614,40.862031,-111.897465,49011126901,49011,Woods Cross
222-222@5qh-syk-5cq,McDonald's,SG_BRAND_5179b21fc1d50950b99b4eecaa48c614,44.281422,-105.493338,56005000400,56005,Gillette
222-222@5qk-jh2-s3q,McDonald's,SG_BRAND_5179b21fc1d50950b99b4eecaa48c614,40.479449,-104.915834,08123002206,08123,Windsor
222-222@5qp-njk-tqf,Subway,SG_BRAND_de80593878cb1673c62a7f338dc7e4e1,43.024966,-108.403143,56013940400,56013,Riverton
222-222@5qp-njt-bkz,McDonald's,SG_BRAND_5179b21fc1d50950b99b4eecaa48c614,43.032022,-108.379944,56013940300,56013,Riverton
222-222@5w9-hny-6p9,McDonald's,SG_BRAND_5179b21fc1d50950b99b4eecaa48c614,43.597029,-116.392553,16001010321,16001,Meridian
222-222@5w9-j77-2tv,McDonald's,SG_BRAND_5179b21fc1d50950b99b4eecaa48c614,43.595633,-116.517034,16027020401,16027,Nampa
222-222@5w9-jb2-45f,McDonald's,SG_BRAND_5179b21fc1d50950b99b4eecaa48c614,43.61906,-116.279732,16001002302,16001,Boise
222-222@5w9-jb9-zmk,McDonald's,SG_BRAND_5179b21fc1d50950b99b4eecaa48c614,43.604639,-116.28868,16001002302,16001,Boise
222-222@5yy-mkp-q9f,Subway,SG_BRAND_de80593878cb1673c62a7f338dc7e4e1,37.680393,-113.081646,49021110701,49021,Cedar City
222-222@5yz-5q2-bff,Subway,SG_BRAND_de80593878cb1673c62a7f338dc7e4e1,38.292654,-112.648976,49001100100,49001,Beaver
222-222@5yz-ncb-6rk,McDonald's,SG_BRAND_5179b21fc1d50950b99b4eecaa48c614,37.176825,-113.310731,49053270902,49053,Hurricane
222-223@5q6-7pq-9zz,Subway,SG_BRAND_de80593878cb1673c62a7f338dc7e4e1,40.070313,-105.201691,08013012705,08013,Boulder
222-223@5qd-37y-59f,Subway,SG_BRAND_de80593878cb1673c62a7f338dc7e4e1,40.755342,-111.826164,49035101400,49035,Salt Lake City
222-223@5qf-m29-dvz,Subway,SG_BRAND_de80593878cb1673c62a7f338dc7e4e1,38.604823,-107.977677,08085966202,08085,Olathe
222-223@5qk-jpd-vmk,Subway,SG_BRAND_de80593878cb1673c62a7f338dc7e4e1,40.463391,-104.889914,08123002204,08123,Windsor
222-223@5qk-k79-2ff,Subway,SG_BRAND_de80593878cb1673c62a7f338dc7e4e1,39.885218,-104.775769,08001008538,08001,Commerce City
222-223@5wf-y6n-sqz,Subway,SG_BRAND_de80593878cb1673c62a7f338dc7e4e1,43.805071,-111.811701,16065950302,16065,Rexburg
222-223@5wg-p9d-jqf,Subway,SG_BRAND_de80593878cb1673c62a7f338dc7e4e1,44.522287,-111.32826,16043970100,16043,Island Park
222-223@5wr-gg5-87q,Subway,SG_BRAND_de80593878cb1673c62a7f338dc7e4e1,42.866514,-112.443202,16005000700,16005,Pocatello
222-224@3x5-4p2-9s5,Subway,SG_BRAND_de80593878cb1673c62a7f338dc7e4e1,47.714213,-116.895367,16055000500,16055,Post Falls
222-224@5q6-3xj-yqf,Subway,SG_BRAND_de80593878cb1673c62a7f338dc7e4e1,39.72356,-105.191754,08059009849,08059,Golden
222-224@5q6-7qh-y9z,Subway,SG_BRAND_de80593878cb1673c62a7f338dc7e4e1,40.151082,-105.131539,08013013212,08013,Longmont
222-224@5q9-bfr-c3q,Subway,SG_BRAND_de80593878cb1673c62a7f338dc7e4e1,39.807569,-104.929813,08001008709,08001,Commerce City
222-224@5q9-bqm-gzf,Subway,SG_BRAND_de80593878cb1673c62a7f338dc7e4e1,39.744735,-104.9849,08031002601,08031,Denver
222-224@5qb-9yf-d9z,Subway,SG_BRAND_de80593878cb1673c62a7f338dc7e4e1,40.13078,-111.597207,49049010303,49049,Mapleton
222-224@5qk-jgh-9s5,Subway,SG_BRAND_de80593878cb1673c62a7f338dc7e4e1,40.478946,-104.987824,08069002501,08069,Windsor
222-224@5qk-jk4-t5f,Subway,SG_BRAND_de80593878cb1673c62a7f338dc7e4e1,40.580708,-105.015973,08069001601,08069,Fort Collins
222-224@5w9-jc4-t7q,Subway,SG_BRAND_de80593878cb1673c62a7f338dc7e4e1,43.606048,-116.211507,16001001000,16001,Boise
222-225@5q6-7bn-sh5,Subway,SG_BRAND_de80593878cb1673c62a7f338dc7e4e1,39.843576,-105.05401,08059009832,08059,Arvada
222-225@5qd-2fs-68v,Subway,SG_BRAND_de80593878cb1673c62a7f338dc7e4e1,41.245341,-112.019341,49057210404,49057,Marriott-Slaterville
222-228@5yz-hzk-35z,Subway,SG_BRAND_de80593878cb1673c62a7f338dc7e4e1,37.059811,-113.586427,49053271600,49053,St George
223-222@5q6-79m-c5z,Subway,SG_BRAND_de80593878cb1673c62a7f338dc7e4e1,39.828479,-104.986785,08001009307,08001,Sherrelwood
223-222@5q6-79s-yqf,Subway,SG_BRAND_de80593878cb1673c62a7f338dc7e4e1,39.853505,-104.977371,08001009001,08001,Thornton
223-222@5q6-t5c-4y9,McDonald's,SG_BRAND_5179b21fc1d50950b99b4eecaa48c614,39.568613,-107.517234,08045951902,08045,New Castle
223-222@5q8-6yj-f75,McDonald's,SG_BRAND_5179b21fc1d50950b99b4eecaa48c614,38.448433,-105.213665,08043978300,08043,Canon City
223-222@5q9-6zr-cbk,McDonald's,SG_BRAND_5179b21fc1d50950b99b4eecaa48c614,38.897339,-104.746592,08041005501,08041,Colorado Springs
223-222@5q9-7fb-p7q,McDonald's,SG_BRAND_5179b21fc1d50950b99b4eecaa48c614,38.840375,-104.748417,08041006000,08041,Colorado Springs
223-222@5q9-9xj-jn5,McDonald's,SG_BRAND_5179b21fc1d50950b99b4eecaa48c614,39.594596,-104.866093,08005006856,08005,Centennial
223-222@5q9-b7r-35z,McDonald's,SG_BRAND_5179b21fc1d50950b99b4eecaa48c614,39.655325,-105.055387,08031011902,08031,Denver
223-222@5q9-bc9-7wk,McDonald's,SG_BRAND_5179b21fc1d50950b99b4eecaa48c614,39.560081,-104.905442,08035014138,08035,Highlands Ranch
223-222@5q9-bpj-mp9,McDonald's,SG_BRAND_5179b21fc1d50950b99b4eecaa48c614,39.757751,-105.142894,08059010504,08059,Applewood
223-222@5q9-bqr-yqf,Subway,SG_BRAND_de80593878cb1673c62a7f338dc7e4e1,39.723944,-104.987234,08031002802,08031,Denver
223-222@5q9-brb-389,McDonald's,SG_BRAND_5179b21fc1d50950b99b4eecaa48c614,39.793115,-105.08091,08059010405,08059,Arvada
223-222@5qb-9zk-g6k,McDonald's,SG_BRAND_5179b21fc1d50950b99b4eecaa48c614,40.217288,-111.658387,49049002801,49049,Provo
223-222@5qc-72q-n3q,Subway,SG_BRAND_de80593878cb1673c62a7f338dc7e4e1,39.599354,-110.803846,49007000300,49007,Price
223-222@5qd-2hh-n89,Subway,SG_BRAND_de80593878cb1673c62a7f338dc7e4e1,41.303767,-111.968411,49057210204,49057,North Ogden
223-222@5qd-jrd-2ff,Subway,SG_BRAND_de80593878cb1673c62a7f338dc7e4e1,37.348441,-108.569478,08083969400,08083,Cortez
223-222@5qd-jrd-2rk,McDonald's,SG_BRAND_5179b21fc1d50950b99b4eecaa48c614,37.349232,-108.568052,08083969300,08083,Cortez
223-222@5qd-t29-sdv,Subway,SG_BRAND_de80593878cb1673c62a7f338dc7e4e1,37.232445,-107.59572,08067970600,08067,Bayfield
223-222@5qh-wb6-rhq,Subway,SG_BRAND_de80593878cb1673c62a7f338dc7e4e1,43.760166,-105.476936,56005000100,56005,Wright
223-222@5qk-j3j-t5f,McDonald's,SG_BRAND_5179b21fc1d50950b99b4eecaa48c614,40.422026,-105.075109,08069001707,08069,Loveland
223-222@5qk-jhj-4jv,McDonald's,SG_BRAND_5179b21fc1d50950b99b4eecaa48c614,40.523935,-105.078161,08069001007,08069,Fort Collins
223-222@5qk-jk2-t35,McDonald's,SG_BRAND_5179b21fc1d50950b99b4eecaa48c614,40.538485,-105.038449,08069001602,08069,Fort Collins
223-222@5qk-nbz-835,Subway,SG_BRAND_de80593878cb1673c62a7f338dc7e4e1,40.260041,-103.801016,08087000400,08087,Fort Morgan
223-222@5qm-pwv-k75,Subway,SG_BRAND_de80593878cb1673c62a7f338dc7e4e1,41.171012,-104.829855,56021001200,56021,Cheyenne
223-222@5qm-pxb-3qz,Subway,SG_BRAND_de80593878cb1673c62a7f338dc7e4e1,41.138265,-104.78994,56021000600,56021,Cheyenne
223-222@5qn-rf3-wzf,Subway,SG_BRAND_de80593878cb1673c62a7f338dc7e4e1,42.228809,-111.400652,16007950200,16007,Paris
223-222@5qp-t5h-9pv,McDonald's,SG_BRAND_5179b21fc1d50950b99b4eecaa48c614,43.473245,-110.786829,56039967702,56039,Jackson
223-222@5ws-f2y-bhq,Subway,SG_BRAND_de80593878cb1673c62a7f338dc7e4e1,41.710996,-112.162319,49003960300,49003,Tremonton
223-222@5yy-mkw-fxq,Subway,SG_BRAND_de80593878cb1673c62a7f338dc7e4e1,37.665469,-113.064362,49021110600,49021,Cedar City
223-223@5q7-zhw-4vz,Subway,SG_BRAND_de80593878cb1673c62a7f338dc7e4e1,38.282358,-104.572957,08101001000,08101,Pueblo
223-223@5qc-x4w-6hq,Subway,SG_BRAND_de80593878cb1673c62a7f338dc7e4e1,40.430608,-111.895245,49049010108,49049,Lehi
223-223@5yz-n7r-2ff,Subway,SG_BRAND_de80593878cb1673c62a7f338dc7e4e1,37.102224,-113.555273,49053271200,49053,St George
223-224@5qk-jhg-9xq,Subway,SG_BRAND_de80593878cb1673c62a7f338dc7e4e1,40.522602,-105.025256,08069001607,08069,Fort Collins
224-222@3x4-ktp-yd9,Subway,SG_BRAND_de80593878cb1673c62a7f338dc7e4e1,48.267435,-116.566914,16017950400,16017,Sandpoint
224-222@5q9-b56-6ff,McDonald's,SG_BRAND_5179b21fc1d50950b99b4eecaa48c614,39.613036,-104.756306,08005085400,08005,Centennial
224-222@5q9-bk7-xwk,Subway,SG_BRAND_de80593878cb1673c62a7f338dc7e4e1,39.708087,-104.80863,08005082100,08005,Aurora
224-222@5q9-bph-d5f,McDonald's,SG_BRAND_5179b21fc1d50950b99b4eecaa48c614,39.709238,-105.134695,08059011723,08059,Lakewood
224-222@5qd-22r-4qf,Subway,SG_BRAND_de80593878cb1673c62a7f338dc7e4e1,41.121782,-112.025718,49011125702,49011,Clearfield
224-222@5qz-cwx-m6k,Subway,SG_BRAND_de80593878cb1673c62a7f338dc7e4e1,37.402852,-102.616015,08009964700,08009,Springfield
224-222@5w9-hrw-z75,Subway,SG_BRAND_de80593878cb1673c62a7f338dc7e4e1,43.667299,-116.682523,16027021300,16027,Caldwell
224-222@5w9-jb9-6kz,McDonald's,SG_BRAND_5179b21fc1d50950b99b4eecaa48c614,43.590768,-116.272145,16001001900,16001,Boise
224-222@5wb-8k8-qmk,McDonald's,SG_BRAND_5179b21fc1d50950b99b4eecaa48c614,43.526562,-114.319925,16013960200,16013,Hailey
224-222@5wf-y57-5pv,McDonald's,SG_BRAND_5179b21fc1d50950b99b4eecaa48c614,43.833746,-111.778614,16065950200,16065,Rexburg
224-222@5ws-mt7-k75,Subway,SG_BRAND_de80593878cb1673c62a7f338dc7e4e1,41.632812,-111.834183,49005001401,49005,Hyrum
225-222@5q9-9y9-d35,Subway,SG_BRAND_de80593878cb1673c62a7f338dc7e4e1,39.594319,-104.926541,08005005628,08005,Centennial
225-222@5qc-x2s-fs5,Subway,SG_BRAND_de80593878cb1673c62a7f338dc7e4e1,40.374108,-111.784353,49049000203,49049,American Fork
225-222@5qf-knx-zmk,Subway,SG_BRAND_de80593878cb1673c62a7f338dc7e4e1,39.077666,-108.559123,08077000500,08077,Grand Junction
225-222@5qh-2wr-jsq,Subway,SG_BRAND_de80593878cb1673c62a7f338dc7e4e1,42.06364,-104.186038,56015957800,56015,Torrington
225-222@5qk-nbz-cwk,McDonald's,SG_BRAND_5179b21fc1d50950b99b4eecaa48c614,40.261646,-103.801947,08087000300,08087,Fort Morgan
225-223@5qm-mxs-rtv,Subway,SG_BRAND_de80593878cb1673c62a7f338dc7e4e1,41.176902,-104.075441,56021002000,56021,Pine Bluffs
226-222@3x5-4j6-4gk,Subway,SG_BRAND_de80593878cb1673c62a7f338dc7e4e1,47.715462,-116.948334,16055000402,16055,Post Falls
226-222@5q7-9nc-ct9,Subway,SG_BRAND_de80593878cb1673c62a7f338dc7e4e1,41.313607,-105.593582,56001963400,56001,Laramie
226-224@5q9-6k6-qcq,Subway,SG_BRAND_de80593878cb1673c62a7f338dc7e4e1,39.48408,-105.075361,08035014203,08035,Roxborough Park
227-222@5qc-qy5-syv,Subway,SG_BRAND_de80593878cb1673c62a7f338dc7e4e1,40.296526,-109.989257,49013940500,49013,Roosevelt
227-224@5q9-b3t-rc5,Subway,SG_BRAND_de80593878cb1673c62a7f338dc7e4e1,39.478861,-104.759588,08035013907,08035,Parker
228-222@5q6-78f-7yv,Subway,SG_BRAND_de80593878cb1673c62a7f338dc7e4e1,39.998536,-105.262043,08013012507,08013,Boulder
228-222@5q9-73k-73q,Subway,SG_BRAND_de80593878cb1673c62a7f338dc7e4e1,38.933303,-104.738931,08041004706,08041,Colorado Springs
228-222@5q9-b7k-8y9,McDonald's,SG_BRAND_5179b21fc1d50950b99b4eecaa48c614,39.610989,-105.020556,08005006501,08005,Littleton
228-222@5qc-wr7-2x5,McDonald's,SG_BRAND_5179b21fc1d50950b99b4eecaa48c614,40.771893,-111.918529,49035100600,49035,Salt Lake City
228-222@5qd-372-q75,McDonald's,SG_BRAND_5179b21fc1d50950b99b4eecaa48c614,40.68739,-111.860464,49035111801,49035,Salt Lake City
228-222@5qj-zwz-yy9,Subway,SG_BRAND_de80593878cb1673c62a7f338dc7e4e1,40.6257,-103.223745,08075966100,08075,Sterling
229-222@5q9-bp3-zs5,McDonald's,SG_BRAND_5179b21fc1d50950b99b4eecaa48c614,39.71067,-105.023498,08031001301,08031,Denver
229-222@5qk-dw8-y35,Subway,SG_BRAND_de80593878cb1673c62a7f338dc7e4e1,40.584703,-102.301974,08095967600,08095,Holyoke
229-223@5q9-b5t-3qz,Subway,SG_BRAND_de80593878cb1673c62a7f338dc7e4e1,39.567955,-105.079736,08059012055,08059,Columbine
229-223@5qc-w8d-cqz,Subway,SG_BRAND_de80593878cb1673c62a7f338dc7e4e1,40.649123,-111.93961,49035113513,49035,Taylorsville
229-224@5q9-9x7-mkz,Subway,SG_BRAND_de80593878cb1673c62a7f338dc7e4e1,39.674523,-104.889646,08005087300,08005,Denver
22c-222@5qc-w6y-syv,Subway,SG_BRAND_de80593878cb1673c62a7f338dc7e4e1,40.610784,-111.939623,49035112907,49035,West Jordan
22d-222@5q6-7cj-bx5,McDonald's,SG_BRAND_5179b21fc1d50950b99b4eecaa48c614,39.913436,-104.941032,08001008508,08001,Thornton
22p-222@5q9-bqk-rrk,Subway,SG_BRAND_de80593878cb1673c62a7f338dc7e4e1,39.743599,-104.989807,08031001702,08031,Denver
22t-222@5q9-9yw-2tv,Subway,SG_BRAND_de80593878cb1673c62a7f338dc7e4e1,39.676439,-104.847843,08005080300,08005,Aurora
22y-222@5yz-n7q-q4v,Subway,SG_BRAND_de80593878cb1673c62a7f338dc7e4e1,37.096447,-113.567397,49053271300,49053,St George
zzw-222@5q6-79t-b6k,Subway,SG_BRAND_de80593878cb1673c62a7f338dc7e4e1,39.85128,-104.982584,08001009001,08001,Thornton
zzw-222@5q6-7c8-rrk,Subway,SG_BRAND_de80593878cb1673c62a7f338dc7e4e1,39.884029,-104.976705,08001009204,08001,Thornton
zzw-222@5q7-6kv-jqf,Subway,SG_BRAND_de80593878cb1673c62a7f338dc7e4e1,40.536383,-105.077534,08069001007,08069,Fort Collins
zzw-222@5q9-6zr-835,Subway,SG_BRAND_de80593878cb1673c62a7f338dc7e4e1,38.896327,-104.750739,08041004901,08041,Colorado Springs
zzw-222@5q9-7cc-s89,Subway,SG_BRAND_de80593878cb1673c62a7f338dc7e4e1,38.777383,-104.814374,08041003307,08041,Colorado Springs
zzw-222@5q9-7np-xnq,Subway,SG_BRAND_de80593878cb1673c62a7f338dc7e4e1,38.941746,-104.602175,08041005104,08041,Falcon
zzw-222@5q9-7sw-7t9,Subway,SG_BRAND_de80593878cb1673c62a7f338dc7e4e1,39.008578,-104.885911,08041003802,08041,Air Force Academy
zzw-222@5q9-b8f-zs5,McDonald's,SG_BRAND_5179b21fc1d50950b99b4eecaa48c614,39.615992,-105.092006,08031012010,08031,Denver
zzw-222@5q9-bcv-ht9,Subway,SG_BRAND_de80593878cb1673c62a7f338dc7e4e1,39.519979,-104.92149,08035014137,08035,Highlands Ranch
zzw-222@5q9-bh2-4qf,McDonald's,SG_BRAND_5179b21fc1d50950b99b4eecaa48c614,39.81393,-104.773237,08031980000,08031,Denver
zzw-222@5q9-mdb-pjv,Subway,SG_BRAND_de80593878cb1673c62a7f338dc7e4e1,39.13643,-103.475347,08073961800,08073,Hugo
zzw-222@5qc-bh7-fs5,Subway,SG_BRAND_de80593878cb1673c62a7f338dc7e4e1,41.263354,-110.955707,56041975400,56041,Evanston
zzw-222@5qc-xhz-hh5,McDonald's,SG_BRAND_5179b21fc1d50950b99b4eecaa48c614,40.58009,-111.837028,49035112613,49035,Sandy
zzw-222@5qc-xtg-k75,Subway,SG_BRAND_de80593878cb1673c62a7f338dc7e4e1,40.507357,-111.978992,49035113016,49035,Riverton
zzw-222@5qc-xth-xkf,Subway,SG_BRAND_de80593878cb1673c62a7f338dc7e4e1,40.560277,-111.97862,49035113020,49035,South Jordan
zzw-222@5qd-3pr-gzf,Subway,SG_BRAND_de80593878cb1673c62a7f338dc7e4e1,40.849081,-111.929145,49011127002,49011,North Salt Lake
zzw-222@5qd-wnx-5s5,Subway,SG_BRAND_de80593878cb1673c62a7f338dc7e4e1,37.26668,-107.013399,08007974400,08007,Pagosa Springs
zzw-222@5qk-jmg-6ff,McDonald's,SG_BRAND_5179b21fc1d50950b99b4eecaa48c614,40.384343,-104.716209,08123001005,08123,Evans
zzw-222@5qk-jqm-zvf,Subway,SG_BRAND_de80593878cb1673c62a7f338dc7e4e1,40.3825,-105.097358,08069002005,08069,Loveland
zzw-222@5qk-jyw-pvz,Subway,SG_BRAND_de80593878cb1673c62a7f338dc7e4e1,40.003064,-104.715941,08123001902,08123,Lochbuie
zzw-222@5qm-pwf-ffz,Subway,SG_BRAND_de80593878cb1673c62a7f338dc7e4e1,41.136239,-104.706629,56021002000,56021,Cheyenne
zzw-222@5wg-3zg-3wk,McDonald's,SG_BRAND_5179b21fc1d50950b99b4eecaa48c614,43.496116,-112.057767,16019971302,16019,Idaho Falls
zzw-222@5wr-238-ht9,Subway,SG_BRAND_de80593878cb1673c62a7f338dc7e4e1,42.770184,-114.703489,16047960200,16047,Wendell
zzw-223@5q6-m6w-n5z,Subway,SG_BRAND_de80593878cb1673c62a7f338dc7e4e1,39.400965,-107.218577,08045951803,08045,Carbondale
zzw-223@5q9-7dv-hdv,Subway,SG_BRAND_de80593878cb1673c62a7f338dc7e4e1,38.740602,-104.839836,08041003306,08041,Colorado Springs
zzw-223@5q9-7g4-zxq,Subway,SG_BRAND_de80593878cb1673c62a7f338dc7e4e1,38.84819,-104.847328,08041001302,08041,Colorado Springs
zzw-223@5q9-9yp-kfz,Subway,SG_BRAND_de80593878cb1673c62a7f338dc7e4e1,39.695811,-104.866683,08005087000,08005,Aurora
zzw-223@5q9-bpr-v4v,Subway,SG_BRAND_de80593878cb1673c62a7f338dc7e4e1,39.683342,-105.0855,08059011702,08059,Lakewood
zzw-223@5qb-fmf-f4v,Subway,SG_BRAND_de80593878cb1673c62a7f338dc7e4e1,40.640731,-111.284912,49043964201,49043,Kamas
zzw-223@5qb-wkn-5cq,Subway,SG_BRAND_de80593878cb1673c62a7f338dc7e4e1,39.352901,-112.571015,49027974100,49027,Delta
zzw-223@5qc-hd4-nkf,Subway,SG_BRAND_de80593878cb1673c62a7f338dc7e4e1,41.275871,-110.336868,56041975200,56041,Mountain View
zzw-223@5qc-mnb-hyv,Subway,SG_BRAND_de80593878cb1673c62a7f338dc7e4e1,40.448976,-109.551419,49047968402,49047,Vernal
zzw-223@5qc-xmj-x3q,McDonald's,SG_BRAND_5179b21fc1d50950b99b4eecaa48c614,40.622715,-111.866524,49035112502,49035,Midvale
zzw-223@5qd-24g-9fz,Subway,SG_BRAND_de80593878cb1673c62a7f338dc7e4e1,40.986307,-111.89361,49011126203,49011,Farmington
zzw-223@5qk-jgy-btv,Subway,SG_BRAND_de80593878cb1673c62a7f338dc7e4e1,40.478048,-104.927122,08123002206,08123,Windsor
zzw-223@5qk-kb8-tvz,Subway,SG_BRAND_de80593878cb1673c62a7f338dc7e4e1,39.848571,-104.674121,08031980000,08031,Denver
zzw-223@5qk-p79-t35,Subway,SG_BRAND_de80593878cb1673c62a7f338dc7e4e1,40.705678,-104.999958,08069002502,08069,Wellington
zzw-223@5w9-jd9-q9f,Subway,SG_BRAND_de80593878cb1673c62a7f338dc7e4e1,43.543281,-116.153771,16001010503,16001,Boise
zzw-223@5wg-42f-5s5,Subway,SG_BRAND_de80593878cb1673c62a7f338dc7e4e1,43.482765,-112.014517,16019970900,16019,Idaho Falls
zzw-224@5q7-6np-rff,Subway,SG_BRAND_de80593878cb1673c62a7f338dc7e4e1,40.574844,-105.084654,08069000600,08069,Fort Collins
zzw-224@5q9-7ht-g8v,Subway,SG_BRAND_de80593878cb1673c62a7f338dc7e4e1,39.098321,-104.864648,08041003701,08041,Monument
zzw-224@5q9-8qk-kj9,McDonald's,SG_BRAND_5179b21fc1d50950b99b4eecaa48c614,39.741149,-104.434725,08001008401,08001,Bennett
zzw-224@5q9-bd4-c89,Subway,SG_BRAND_de80593878cb1673c62a7f338dc7e4e1,39.548228,-104.99518,08035014126,08035,Highlands Ranch
zzw-224@5q9-bpm-8gk,McDonald's,SG_BRAND_5179b21fc1d50950b99b4eecaa48c614,39.739706,-105.109931,08059010902,08059,Lakewood
zzw-224@5qb-9zr-ghq,Subway,SG_BRAND_de80593878cb1673c62a7f338dc7e4e1,40.229493,-111.647554,49049002500,49049,Provo
zzw-224@5qc-7pc-5fz,Subway,SG_BRAND_de80593878cb1673c62a7f338dc7e4e1,38.994257,-110.183785,49015976500,49015,Green River
zzw-224@5qc-w7x-zs5,Subway,SG_BRAND_de80593878cb1673c62a7f338dc7e4e1,40.697229,-111.97764,49035113406,49035,West Valley City
zzw-224@5qc-xmf-4n5,Subway,SG_BRAND_de80593878cb1673c62a7f338dc7e4e1,40.592351,-111.832588,49035112615,49035,Sandy
zzw-224@5qc-xv7-hyv,Subway,SG_BRAND_de80593878cb1673c62a7f338dc7e4e1,40.509728,-112.025024,49035113107,49035,Herriman
zzw-224@5qn-zy9-9cq,Subway,SG_BRAND_de80593878cb1673c62a7f338dc7e4e1,41.517991,-109.468756,56037970700,56037,Green River
zzw-225@5q9-7g4-gx5,Subway,SG_BRAND_de80593878cb1673c62a7f338dc7e4e1,38.83089,-104.841942,08041002400,08041,Colorado Springs
zzw-225@5q9-9yx-cdv,Subway,SG_BRAND_de80593878cb1673c62a7f338dc7e4e1,39.727127,-104.849543,08005007400,08005,Aurora
zzw-225@5w9-j7q-7yv,McDonald's,SG_BRAND_5179b21fc1d50950b99b4eecaa48c614,43.586596,-116.574683,16027020602,16027,Nampa
zzw-227@5q6-7cg-syv,Subway,SG_BRAND_de80593878cb1673c62a7f338dc7e4e1,39.913479,-104.976056,08001008507,08001,Northglenn
zzw-22c@5q9-6zn-fmk,Subway,SG_BRAND_de80593878cb1673c62a7f338dc7e4e1,38.858537,-104.775349,08041002000,08041,Colorado Springs
zzw-22d@5q6-7c4-89z,Subway,SG_BRAND_de80593878cb1673c62a7f338dc7e4e1,39.945017,-104.992483,08001060100,08001,Westminster
zzy-222@5q6-7m8-vmk,Subway,SG_BRAND_de80593878cb1673c62a7f338dc7e4e1,39.812158,-105.172693,08059009842,08059,Arvada
zzy-222@5q8-h6q-kfz,McDonald's,SG_BRAND_5179b21fc1d50950b99b4eecaa48c614,37.991371,-103.570882,08089968300,08089,La Junta
zzy-222@5qc-35j-jy9,Subway,SG_BRAND_de80593878cb1673c62a7f338dc7e4e1,39.210481,-111.007618,49015976300,49015,Castle Dale
zzy-222@5qc-w83-vcq,Subway,SG_BRAND_de80593878cb1673c62a7f338dc7e4e1,40.682553,-111.987643,49035113410,49035,West Valley City
zzy-222@5qd-369-w8v,Subway,SG_BRAND_de80593878cb1673c62a7f338dc7e4e1,40.686612,-111.824781,49035110702,49035,Holladay
zzy-222@5qd-37f-q2k,McDonald's,SG_BRAND_5179b21fc1d50950b99b4eecaa48c614,40.666316,-111.837472,49035110800,49035,Holladay
zzy-222@5qn-vvb-dqf,Subway,SG_BRAND_de80593878cb1673c62a7f338dc7e4e1,42.538814,-110.110003,56035000101,56035,Big Piney
zzy-222@5qp-x33-3h5,Subway,SG_BRAND_de80593878cb1673c62a7f338dc7e4e1,43.170281,-111.017335,56023978000,56023,Alpine
zzy-222@5w9-y9c-hwk,Subway,SG_BRAND_de80593878cb1673c62a7f338dc7e4e1,43.617992,-116.927771,16073950101,16073,Homedale
zzy-222@5wc-cnv-hh5,McDonald's,SG_BRAND_5179b21fc1d50950b99b4eecaa48c614,46.732957,-117.021473,16057005100,16057,Moscow
zzy-222@5ws-mzc-sh5,Subway,SG_BRAND_de80593878cb1673c62a7f338dc7e4e1,41.486055,-112.030927,49003960802,49003,Brigham City
zzy-223@5q6-pnh-789,Subway,SG_BRAND_de80593878cb1673c62a7f338dc7e4e1,39.522148,-107.776005,08045952002,08045,Rifle
zzy-223@5qn-9wr-hnq,McDonald's,SG_BRAND_5179b21fc1d50950b99b4eecaa48c614,42.831898,-108.723928,56013000100,56013,Lander
zzy-223@5w9-pn2-mff,Subway,SG_BRAND_de80593878cb1673c62a7f338dc7e4e1,43.066549,-115.855024,16039960500,16039,Mountain Home AFB
zzy-224@5q6-r6p-gc5,Subway,SG_BRAND_de80593878cb1673c62a7f338dc7e4e1,39.645287,-106.9478,08037000200,08037,Gypsum
zzy-225@5qb-9hx-bhq,Subway,SG_BRAND_de80593878cb1673c62a7f338dc7e4e1,40.061356,-111.667727,49049010406,49049,Salem
zzy-225@5qh-ywb-gzf,Subway,SG_BRAND_de80593878cb1673c62a7f338dc7e4e1,44.263493,-104.944478,56011950200,56011,Moorcroft
zzy-225@5w8-gg9-vmk,Subway,SG_BRAND_de80593878cb1673c62a7f338dc7e4e1,44.903647,-116.09866,16085970300,16085,McCall
zzy-229@5q6-59w-d9z,Subway,SG_BRAND_de80593878cb1673c62a7f338dc7e4e1,39.627792,-106.063646,08117000200,08117,Silverthorne
222-222@5q6-7bj-tsq,McDonald's,SG_BRAND_5179b21fc1d50950b99b4eecaa48c614,39.816203,-105.080736,08059010212,08059,Arvada
222-222@5q6-7bp-xh5,McDonald's,SG_BRAND_5179b21fc1d50950b99b4eecaa48c614,39.856015,-105.060022,08059009832,08059,Westminster
222-222@5q7-6nh-nnq,McDonald's,SG_BRAND_5179b21fc1d50950b99b4eecaa48c614,40.610152,-105.077356,08069001304,08069,Fort Collins
222-222@5q7-9ng-dn5,Subway,SG_BRAND_de80593878cb1673c62a7f338dc7e4e1,41.307377,-105.615178,56001962700,56001,Laramie
222-222@5q7-9pz-2ff,McDonald's,SG_BRAND_5179b21fc1d50950b99b4eecaa48c614,41.308661,-105.556894,56001963700,56001,Laramie
222-222@5q7-zcv-hqz,Subway,SG_BRAND_de80593878cb1673c62a7f338dc7e4e1,38.319651,-104.614283,08101002903,08101,Pueblo
222-222@5q8-5m4-ht9,McDonald's,SG_BRAND_5179b21fc1d50950b99b4eecaa48c614,38.718828,-104.698114,08041004503,08041,Fountain
222-222@5q9-75h-m49,McDonald's,SG_BRAND_5179b21fc1d50950b99b4eecaa48c614,38.824034,-104.727528,08041006301,08041,Colorado Springs
222-222@5q9-7fn-9pv,McDonald's,SG_BRAND_5179b21fc1d50950b99b4eecaa48c614,38.741975,-104.736262,08041004501,08041,Fountain
222-222@5q9-7hs-gtv,McDonald's,SG_BRAND_5179b21fc1d50950b99b4eecaa48c614,39.056207,-104.843495,08041007202,08041,Monument
222-222@5q9-7ht-cnq,McDonald's,SG_BRAND_5179b21fc1d50950b99b4eecaa48c614,39.094802,-104.864304,08041003701,08041,Monument
222-222@5q9-b49-cbk,McDonald's,SG_BRAND_5179b21fc1d50950b99b4eecaa48c614,39.588202,-104.688463,08005007107,08005,Aurora
222-222@5q9-bg4-st9,McDonald's,SG_BRAND_5179b21fc1d50950b99b4eecaa48c614,39.769084,-104.902046,08031004107,08031,Denver
222-222@5q9-bgt-pqf,McDonald's,SG_BRAND_5179b21fc1d50950b99b4eecaa48c614,39.783268,-104.773914,08031008388,08031,Denver
222-222@5q9-bjz-dn5,McDonald's,SG_BRAND_5179b21fc1d50950b99b4eecaa48c614,39.697745,-104.809374,08005082100,08005,Aurora
222-222@5q9-bk3-gzf,McDonald's,SG_BRAND_5179b21fc1d50950b99b4eecaa48c614,39.674147,-104.791675,08005082400,08005,Aurora
222-222@5q9-bnm-h5z,McDonald's,SG_BRAND_5179b21fc1d50950b99b4eecaa48c614,39.711548,-105.072669,08059011602,08059,Lakewood
222-222@5q9-br7-m8v,McDonald's,SG_BRAND_5179b21fc1d50950b99b4eecaa48c614,39.802401,-105.107436,08059010307,08059,Arvada
222-222@5qb-9jr-v2k,Subway,SG_BRAND_de80593878cb1673c62a7f338dc7e4e1,40.053338,-111.731619,49049003401,49049,Payson
222-222@5qc-72q-kj9,McDonald's,SG_BRAND_5179b21fc1d50950b99b4eecaa48c614,39.600037,-110.803105,49007000300,49007,Price
222-222@5qc-dq5-bp9,Subway,SG_BRAND_de80593878cb1673c62a7f338dc7e4e1,41.044546,-111.676489,49029970100,49029,Morgan
222-222@5qc-w7r-rrk,McDonald's,SG_BRAND_5179b21fc1d50950b99b4eecaa48c614,40.609806,-112.02681,49035113535,49035,West Jordan
222-222@5qc-w94-3bk,Subway,SG_BRAND_de80593878cb1673c62a7f338dc7e4e1,40.696887,-112.023403,49035113412,49035,West Valley City
222-222@5qc-x6g-rrk,Subway,SG_BRAND_de80593878cb1673c62a7f338dc7e4e1,40.299322,-111.695558,49049000901,49049,Orem
222-222@5qc-xj4-m8v,McDonald's,SG_BRAND_5179b21fc1d50950b99b4eecaa48c614,40.559808,-111.853789,49035112812,49035,Sandy
222-222@5qc-xmh-5zz,Subway,SG_BRAND_de80593878cb1673c62a7f338dc7e4e1,40.577714,-111.871788,49035112604,49035,Sandy
222-222@5qd-2h3-2x5,McDonald's,SG_BRAND_5179b21fc1d50950b99b4eecaa48c614,41.189319,-112.049072,49057210506,49057,Roy
222-222@5qd-36z-6ff,McDonald's,SG_BRAND_5179b21fc1d50950b99b4eecaa48c614,40.700193,-111.890698,49035111600,49035,Salt Lake City
222-222@5qd-3rn-sbk,Subway,SG_BRAND_de80593878cb1673c62a7f338dc7e4e1,40.921797,-111.883698,49011126306,49011,Centerville
222-222@5qf-kd6-2x5,McDonald's,SG_BRAND_5179b21fc1d50950b99b4eecaa48c614,39.089294,-108.455691,08077001705,08077,Clifton
222-222@5qh-syh-yqf,Subway,SG_BRAND_de80593878cb1673c62a7f338dc7e4e1,44.316008,-105.530557,56005000600,56005,Gillette
222-222@5qk-jzz-8n5,Subway,SG_BRAND_de80593878cb1673c62a7f338dc7e4e1,40.077571,-104.648739,08123001902,08123,Hudson
222-222@5qk-k8x-6hq,McDonald's,SG_BRAND_5179b21fc1d50950b99b4eecaa48c614,39.958134,-104.777542,08001008523,08001,Brighton
222-222@5qm-pxh-nt9,McDonald's,SG_BRAND_5179b21fc1d50950b99b4eecaa48c614,41.160605,-104.767793,56021001501,56021,Cheyenne
222-222@5w9-hnw-389,McDonald's,SG_BRAND_5179b21fc1d50950b99b4eecaa48c614,43.619845,-116.373028,16001010333,16001,Meridian
222-222@5w9-hrh-4sq,Subway,SG_BRAND_de80593878cb1673c62a7f338dc7e4e1,43.634338,-116.644376,16027021700,16027,Caldwell
222-222@5wr-ghc-fcq,Subway,SG_BRAND_de80593878cb1673c62a7f338dc7e4e1,42.916057,-112.466011,16005000300,16005,Chubbuck
222-223@5q6-7ss-vvf,Subway,SG_BRAND_de80593878cb1673c62a7f338dc7e4e1,40.017237,-105.101502,08013012800,08013,Erie
222-223@5qk-k85-54v,Subway,SG_BRAND_de80593878cb1673c62a7f338dc7e4e1,39.886828,-104.883172,08001008535,08001,Commerce City
222-223@5wr-7kz-rrk,Subway,SG_BRAND_de80593878cb1673c62a7f338dc7e4e1,42.591529,-114.46574,16083000800,16083,Twin Falls
222-224@5qd-35f-q2k,Subway,SG_BRAND_de80593878cb1673c62a7f338dc7e4e1,40.734195,-111.498855,49043964306,49043,Silver Summit
222-224@5qk-k7n-y9z,Subway,SG_BRAND_de80593878cb1673c62a7f338dc7e4e1,39.945034,-104.938562,08001008524,08001,Thornton
222-224@5w9-jb8-ndv,Subway,SG_BRAND_de80593878cb1673c62a7f338dc7e4e1,43.60409,-116.273653,16001002000,16001,Boise
222-225@5q9-45s-jqf,Subway,SG_BRAND_de80593878cb1673c62a7f338dc7e4e1,39.359698,-104.608817,08039961208,08039,Elizabeth
222-225@5qf-kn8-yd9,Subway,SG_BRAND_de80593878cb1673c62a7f338dc7e4e1,39.108922,-108.541984,08077001001,08077,Grand Junction
222-226@5q9-bd2-gp9,Subway,SG_BRAND_de80593878cb1673c62a7f338dc7e4e1,39.544627,-104.932967,08035014139,08035,Highlands Ranch
223-222@3x5-4qm-fj9,Subway,SG_BRAND_de80593878cb1673c62a7f338dc7e4e1,47.744323,-116.830496,16055000700,16055,Coeur D Alene
223-222@5q9-72d-mc5,McDonald's,SG_BRAND_5179b21fc1d50950b99b4eecaa48c614,38.87464,-104.815935,08041000302,08041,Colorado Springs
223-222@5q9-9yk-2rk,McDonald's,SG_BRAND_5179b21fc1d50950b99b4eecaa48c614,39.595762,-104.886806,08005006712,08005,Greenwood Village
223-222@5q9-9yy-mzf,McDonald's,SG_BRAND_5179b21fc1d50950b99b4eecaa48c614,39.696096,-104.838249,08005080700,08005,Aurora
223-222@5q9-b7k-wx5,McDonald's,SG_BRAND_5179b21fc1d50950b99b4eecaa48c614,39.62353,-105.021237,08005005620,08005,Littleton
223-222@5qb-b26-tn5,Subway,SG_BRAND_de80593878cb1673c62a7f338dc7e4e1,40.180954,-111.611045,49049002902,49049,Springville
223-222@5qc-xrt-5pv,McDonald's,SG_BRAND_5179b21fc1d50950b99b4eecaa48c614,40.5083,-112.010744,49035113107,49035,Herriman
223-222@5qd-22r-syv,McDonald's,SG_BRAND_5179b21fc1d50950b99b4eecaa48c614,41.123719,-112.026789,49011125502,49011,Clearfield
223-222@5qd-3rn-t5f,McDonald's,SG_BRAND_5179b21fc1d50950b99b4eecaa48c614,40.92347,-111.890108,49011126306,49011,Centerville
223-222@5qh-fb9-fvf,McDonald's,SG_BRAND_5179b21fc1d50950b99b4eecaa48c614,42.858224,-106.331657,56025001401,56025,Casper
223-222@5qk-jkr-pqf,McDonald's,SG_BRAND_5179b21fc1d50950b99b4eecaa48c614,40.422077,-104.790595,08123001416,08123,Greeley
223-222@5qk-p79-qfz,McDonald's,SG_BRAND_5179b21fc1d50950b99b4eecaa48c614,40.702355,-105.000004,08069002502,08069,Wellington
223-222@5qk-p8k-x89,McDonald's,SG_BRAND_5179b21fc1d50950b99b4eecaa48c614,40.524121,-104.710647,08123001500,08123,Eaton
223-222@5qk-whd-5vf,Subway,SG_BRAND_de80593878cb1673c62a7f338dc7e4e1,40.158938,-103.21048,08121924200,08121,Akron
223-222@5qn-zq5-8jv,Subway,SG_BRAND_de80593878cb1673c62a7f338dc7e4e1,41.577632,-109.250118,56037970903,56037,Rock Springs
223-222@5sy-gz7-2hq,McDonald's,SG_BRAND_5179b21fc1d50950b99b4eecaa48c614,44.753348,-108.752751,56029965200,56029,Powell
223-222@5w9-j77-2tv,Subway,SG_BRAND_de80593878cb1673c62a7f338dc7e4e1,43.595233,-116.517179,16027020401,16027,Nampa
223-222@5wr-ghd-789,McDonald's,SG_BRAND_5179b21fc1d50950b99b4eecaa48c614,42.911018,-112.465696,16005001400,16005,Chubbuck
223-222@5ws-h48-zs5,Subway,SG_BRAND_de80593878cb1673c62a7f338dc7e4e1,41.817945,-111.831587,49005000202,49005,Smithfield
223-222@5yz-n7g-8qf,McDonald's,SG_BRAND_5179b21fc1d50950b99b4eecaa48c614,37.122354,-113.624183,49053270600,49053,St George
223-224@5qc-zy7-ffz,Subway,SG_BRAND_de80593878cb1673c62a7f338dc7e4e1,41.089787,-111.997888,49011125801,49011,Layton
223-224@5qf-mbh-9cq,Subway,SG_BRAND_de80593878cb1673c62a7f338dc7e4e1,38.746481,-108.071511,08029965100,08029,Delta
223-224@5qg-52z-fs5,Subway,SG_BRAND_de80593878cb1673c62a7f338dc7e4e1,38.562363,-109.549351,49019000300,49019,Moab
223-224@5w9-j7t-7bk,Subway,SG_BRAND_de80593878cb1673c62a7f338dc7e4e1,43.596872,-116.55384,16027020401,16027,Nampa
224-222@5q6-mnw-x3q,McDonald's,SG_BRAND_5179b21fc1d50950b99b4eecaa48c614,39.519467,-107.320015,08045951702,08045,Glenwood Springs
224-222@5q9-73q-b49,McDonald's,SG_BRAND_5179b21fc1d50950b99b4eecaa48c614,38.949684,-104.802987,08041003906,08041,Colorado Springs
224-222@5q9-9y5-qs5,McDonald's,SG_BRAND_5179b21fc1d50950b99b4eecaa48c614,39.652859,-104.995436,08005006000,08005,Englewood
224-222@5qc-w82-dn5,McDonald's,SG_BRAND_5179b21fc1d50950b99b4eecaa48c614,40.679365,-111.938379,49035113511,49035,Taylorsville
224-222@5qc-zzr-dy9,McDonald's,SG_BRAND_5179b21fc1d50950b99b4eecaa48c614,41.158689,-111.940133,49057210900,49057,South Ogden
224-222@5qf-knw-9cq,Subway,SG_BRAND_de80593878cb1673c62a7f338dc7e4e1,39.077126,-108.51791,08077000700,08077,Grand Junction
224-222@5qk-j37-syv,Subway,SG_BRAND_de80593878cb1673c62a7f338dc7e4e1,40.408203,-105.046212,08069001706,08069,Loveland
224-222@5qk-jnv-rtv,Subway,SG_BRAND_de80593878cb1673c62a7f338dc7e4e1,40.421877,-104.725016,08123001201,08123,Greeley
224-222@5qk-jnx-q4v,Subway,SG_BRAND_de80593878cb1673c62a7f338dc7e4e1,40.422119,-104.692971,08123000100,08123,Greeley
224-222@5w9-hmr-ct9,Subway,SG_BRAND_de80593878cb1673c62a7f338dc7e4e1,43.695387,-116.351502,16001010225,16001,Eagle
224-222@5w9-j6j-5mk,Subway,SG_BRAND_de80593878cb1673c62a7f338dc7e4e1,43.563306,-116.572534,16027020402,16027,Nampa
224-222@5wc-cpv-ty9,McDonald's,SG_BRAND_5179b21fc1d50950b99b4eecaa48c614,46.722418,-116.988871,16057005300,16057,Moscow
224-223@5qc-zyg-sdv,Subway,SG_BRAND_de80593878cb1673c62a7f338dc7e4e1,41.062322,-111.945063,49011125905,49011,Layton
224-224@5qk-k98-hh5,Subway,SG_BRAND_de80593878cb1673c62a7f338dc7e4e1,39.969983,-104.817072,08001008523,08001,Brighton
225-222@3x5-4p6-66k,McDonald's,SG_BRAND_5179b21fc1d50950b99b4eecaa48c614,47.7112,-116.922226,16055000602,16055,Post Falls
225-222@5q6-7cc-54v,McDonald's,SG_BRAND_5179b21fc1d50950b99b4eecaa48c614,39.885695,-104.994673,08001009323,08001,Northglenn
225-222@5q7-yxg-kvf,Subway,SG_BRAND_de80593878cb1673c62a7f338dc7e4e1,38.243486,-104.648109,08101002600,08101,Pueblo
225-222@5q9-7fd-brk,Subway,SG_BRAND_de80593878cb1673c62a7f338dc7e4e1,38.837036,-104.784719,08041002101,08041,Colorado Springs
225-222@5q9-7fy-j35,McDonald's,SG_BRAND_5179b21fc1d50950b99b4eecaa48c614,38.807074,-104.82303,08041003000,08041,Colorado Springs
225-222@5q9-7rk-nnq,McDonald's,SG_BRAND_5179b21fc1d50950b99b4eecaa48c614,38.989882,-105.047346,08119010104,08119,Woodland Park
225-222@5q9-b7z-hyv,McDonald's,SG_BRAND_5179b21fc1d50950b99b4eecaa48c614,39.57046,-104.989054,08005005634,08005,Littleton
225-222@5qc-xkt-87q,McDonald's,SG_BRAND_5179b21fc1d50950b99b4eecaa48c614,40.62349,-111.83478,49035111202,49035,Cottonwood Heights
225-222@5qd-2h2-389,McDonald's,SG_BRAND_5179b21fc1d50950b99b4eecaa48c614,41.192434,-111.971735,49057210800,49057,South Ogden
225-222@5qd-369-4sq,Subway,SG_BRAND_de80593878cb1673c62a7f338dc7e4e1,40.708407,-111.853404,49035104800,49035,Salt Lake City
225-222@5qd-36c-kvf,McDonald's,SG_BRAND_5179b21fc1d50950b99b4eecaa48c614,40.725631,-111.824091,49035104300,49035,Salt Lake City
225-222@5w9-j7r-y9z,Subway,SG_BRAND_de80593878cb1673c62a7f338dc7e4e1,43.59989,-116.594199,16027021002,16027,Nampa
225-222@5w9-jb4-k4v,Subway,SG_BRAND_de80593878cb1673c62a7f338dc7e4e1,43.619136,-116.316149,16001002310,16001,Boise
225-223@5q9-9xd-tvz,Subway,SG_BRAND_de80593878cb1673c62a7f338dc7e4e1,39.595457,-104.849085,08005006855,08005,Centennial
225-223@5qk-pbc-649,Subway,SG_BRAND_de80593878cb1673c62a7f338dc7e4e1,40.581137,-104.731653,08123002300,08123,Ault
226-222@5q6-7cb-mkz,Subway,SG_BRAND_de80593878cb1673c62a7f338dc7e4e1,39.883997,-104.939731,08001009103,08001,Thornton
226-222@5q7-c2c-st9,Subway,SG_BRAND_de80593878cb1673c62a7f338dc7e4e1,41.135094,-104.815804,56021000700,56021,Cheyenne
226-222@5q8-m7c-xbk,Subway,SG_BRAND_de80593878cb1673c62a7f338dc7e4e1,37.473747,-105.890187,08003960200,08003,Alamosa
226-222@5qd-377-v2k,Subway,SG_BRAND_de80593878cb1673c62a7f338dc7e4e1,40.72565,-111.888533,49035102900,49035,Salt Lake City
226-222@5qd-3pw-5fz,Subway,SG_BRAND_de80593878cb1673c62a7f338dc7e4e1,40.884954,-111.891837,49011126700,49011,Bountiful
226-222@5w9-hkm-f2k,Subway,SG_BRAND_de80593878cb1673c62a7f338dc7e4e1,43.691817,-116.492761,16001010201,16001,Star
227-222@5qd-375-k4v,Subway,SG_BRAND_de80593878cb1673c62a7f338dc7e4e1,40.674043,-111.888924,49035112100,49035,Murray
227-222@5qf-s59-mx5,Subway,SG_BRAND_de80593878cb1673c62a7f338dc7e4e1,39.152606,-108.736848,08077001501,08077,Fruita
227-222@5qn-9wq-8n5,Subway,SG_BRAND_de80593878cb1673c62a7f338dc7e4e1,42.83616,-108.744195,56013000200,56013,Lander
227-222@5w9-jbc-d5f,McDonald's,SG_BRAND_5179b21fc1d50950b99b4eecaa48c614,43.609374,-116.242954,16001001000,16001,Boise
227-222@5yy-vmb-vs5,Subway,SG_BRAND_de80593878cb1673c62a7f338dc7e4e1,37.77064,-111.598911,49017000400,49017,Escalante
227-225@5qk-jhd-qj9,Subway,SG_BRAND_de80593878cb1673c62a7f338dc7e4e1,40.523157,-105.06016,08069001009,08069,Fort Collins
228-222@5q6-pc5-sqz,Subway,SG_BRAND_de80593878cb1673c62a7f338dc7e4e1,39.552559,-107.777546,08045952001,08045,Rifle
228-222@5qb-9zk-cyv,Subway,SG_BRAND_de80593878cb1673c62a7f338dc7e4e1,40.215821,-111.659637,49049002801,49049,Provo
228-222@5w9-pg5-f2k,Subway,SG_BRAND_de80593878cb1673c62a7f338dc7e4e1,43.126342,-115.697762,16039960400,16039,Mountain Home
229-222@5q9-9zk-wx5,Subway,SG_BRAND_de80593878cb1673c62a7f338dc7e4e1,39.678643,-104.913909,08031005200,08031,Denver
229-222@5q9-b56-45f,Subway,SG_BRAND_de80593878cb1673c62a7f338dc7e4e1,39.614802,-104.756864,08005085400,08005,Centennial
229-222@5qc-wg2-y7q,McDonald's,SG_BRAND_5179b21fc1d50950b99b4eecaa48c614,40.549429,-112.297749,49045131002,49045,Tooele
22c-222@5qc-x6w-249,Subway,SG_BRAND_de80593878cb1673c62a7f338dc7e4e1,40.250061,-111.642739,49049001701,49049,Provo
22g-222@5q7-yxj-vxq,McDonald's,SG_BRAND_5179b21fc1d50950b99b4eecaa48c614,38.24387,-104.618094,08101002100,08101,Pueblo
22g-222@5qc-w68-94v,Subway,SG_BRAND_de80593878cb1673c62a7f338dc7e4e1,40.639523,-112.008518,49035113803,49035,Kearns
22g-222@5qk-js9-zzz,Subway,SG_BRAND_de80593878cb1673c62a7f338dc7e4e1,40.454551,-105.079127,08069001809,08069,Loveland
22h-222@5wr-gjj-3bk,Subway,SG_BRAND_de80593878cb1673c62a7f338dc7e4e1,42.857235,-112.433077,16005000800,16005,Pocatello
22n-222@5q9-bjz-swk,Subway,SG_BRAND_de80593878cb1673c62a7f338dc7e4e1,39.695049,-104.824704,08005081200,08005,Aurora
22n-222@5qd-37r-k9f,Subway,SG_BRAND_de80593878cb1673c62a7f338dc7e4e1,40.675255,-111.866366,49035111903,49035,Salt Lake City
22p-229@5q9-bqw-t35,Subway,SG_BRAND_de80593878cb1673c62a7f338dc7e4e1,39.745232,-105.005776,08031001902,08031,Denver
24b-222@5qd-38q-t7q,McDonald's,SG_BRAND_5179b21fc1d50950b99b4eecaa48c614,40.763852,-111.871469,49035101900,49035,Salt Lake City
zzw-222@5q6-79r-g49,Subway,SG_BRAND_de80593878cb1673c62a7f338dc7e4e1,39.864536,-104.99725,08001009316,08001,Thornton
zzw-222@5q6-7bj-rkz,Subway,SG_BRAND_de80593878cb1673c62a7f338dc7e4e1,39.813232,-105.079237,08059010212,08059,Arvada
zzw-222@5q7-kph-h89,Subway,SG_BRAND_de80593878cb1673c62a7f338dc7e4e1,41.675947,-107.982333,56037971600,56037,Wamsutter
zzw-222@5q8-m7d-649,Subway,SG_BRAND_de80593878cb1673c62a7f338dc7e4e1,37.480379,-105.893471,08003960200,08003,Alamosa
zzw-222@5q9-72j-hqz,McDonald's,SG_BRAND_5179b21fc1d50950b99b4eecaa48c614,38.836832,-104.817348,08041002200,08041,Colorado Springs
zzw-222@5q9-9y5-yvz,Subway,SG_BRAND_de80593878cb1673c62a7f338dc7e4e1,39.650426,-105.008407,08005006000,08005,Sheridan
zzw-222@5q9-9yv-pqf,Subway,SG_BRAND_de80593878cb1673c62a7f338dc7e4e1,39.668478,-104.862562,08005080300,08005,Aurora
zzw-222@5q9-b8n-kfz,Subway,SG_BRAND_de80593878cb1673c62a7f338dc7e4e1,39.623578,-105.109299,08059012054,08059,Littleton
zzw-222@5q9-bcy-py9,Subway,SG_BRAND_de80593878cb1673c62a7f338dc7e4e1,39.522624,-104.965707,08035014135,08035,Highlands Ranch
zzw-222@5q9-bdr-rtv,Subway,SG_BRAND_de80593878cb1673c62a7f338dc7e4e1,39.799315,-104.904339,08001008709,08001,Commerce City
zzw-222@5q9-bft-2x5,McDonald's,SG_BRAND_5179b21fc1d50950b99b4eecaa48c614,39.801605,-104.977367,08001015000,08001,North Washington
zzw-222@5q9-bqm-wrk,Subway,SG_BRAND_de80593878cb1673c62a7f338dc7e4e1,39.748354,-104.99182,08031001702,08031,Denver
zzw-222@5q9-bqn-zs5,Subway,SG_BRAND_de80593878cb1673c62a7f338dc7e4e1,39.739722,-104.9592,08031003702,08031,Denver
zzw-222@5q9-br8-kmk,Subway,SG_BRAND_de80593878cb1673c62a7f338dc7e4e1,39.802349,-105.101393,08059010304,08059,Arvada
zzw-222@5qb-9jr-tqf,McDonald's,SG_BRAND_5179b21fc1d50950b99b4eecaa48c614,40.052608,-111.733099,49049003401,49049,Payson
zzw-222@5qc-w8n-rtv,Subway,SG_BRAND_de80593878cb1673c62a7f338dc7e4e1,40.653772,-111.908441,49035112201,49035,Murray
zzw-222@5qc-x6n-wff,Subway,SG_BRAND_de80593878cb1673c62a7f338dc7e4e1,40.323113,-111.705951,49049000709,49049,Orem
zzw-222@5qd-38s-wx5,McDonald's,SG_BRAND_5179b21fc1d50950b99b4eecaa48c614,40.736457,-111.887837,49035103100,49035,Salt Lake City
zzw-222@5qk-jnx-6ff,Subway,SG_BRAND_de80593878cb1673c62a7f338dc7e4e1,40.404439,-104.695344,08123000800,08123,Greeley
zzw-222@5qn-rzt-6kz,Subway,SG_BRAND_de80593878cb1673c62a7f338dc7e4e1,42.321804,-111.298491,16007950100,16007,Montpelier
zzw-222@5wg-433-6ff,McDonald's,SG_BRAND_5179b21fc1d50950b99b4eecaa48c614,43.43667,-112.119819,16019971400,16019,Idaho Falls
zzw-222@5wr-7g2-syv,Subway,SG_BRAND_de80593878cb1673c62a7f338dc7e4e1,42.548903,-114.453335,16083001000,16083,Twin Falls
zzw-222@5wr-gvh-nt9,Subway,SG_BRAND_de80593878cb1673c62a7f338dc7e4e1,42.789672,-112.839072,16077960200,16077,American Falls
zzw-223@5q9-75q-54v,Subway,SG_BRAND_de80593878cb1673c62a7f338dc7e4e1,38.846847,-104.722108,08041005900,08041,Colorado Springs
zzw-223@5q9-b3k-575,Subway,SG_BRAND_de80593878cb1673c62a7f338dc7e4e1,39.55865,-104.824727,08035014001,08035,Englewood
zzw-223@5q9-b9t-h3q,Subway,SG_BRAND_de80593878cb1673c62a7f338dc7e4e1,39.410007,-104.872496,08035014123,08035,Castle Rock
zzw-223@5q9-bdr-k9f,Subway,SG_BRAND_de80593878cb1673c62a7f338dc7e4e1,39.78482,-104.905084,08001008709,08001,Commerce City
zzw-223@5q9-bq6-nwk,McDonald's,SG_BRAND_5179b21fc1d50950b99b4eecaa48c614,39.789,-105.025786,08031015400,08031,Denver
zzw-223@5qc-nz4-r8v,Subway,SG_BRAND_de80593878cb1673c62a7f338dc7e4e1,40.419228,-109.498834,49047968200,49047,Naples
zzw-223@5qd-228-rp9,Subway,SG_BRAND_de80593878cb1673c62a7f338dc7e4e1,41.101517,-111.94495,49011125804,49011,Layton
zzw-223@5qh-f2k-w8v,Subway,SG_BRAND_de80593878cb1673c62a7f338dc7e4e1,42.846054,-106.252196,56025001602,56025,Casper
zzw-223@5qk-j5f-pn5,Subway,SG_BRAND_de80593878cb1673c62a7f338dc7e4e1,40.206976,-104.822503,08123001800,08123,Platteville
zzw-223@5w9-v4f-ghq,McDonald's,SG_BRAND_5179b21fc1d50950b99b4eecaa48c614,43.863256,-116.500522,16045960200,16045,Emmett
zzw-223@5wr-bbs-fvf,Subway,SG_BRAND_de80593878cb1673c62a7f338dc7e4e1,43.195043,-112.36128,16011950500,16011,Blackfoot
zzw-224@5q6-799-ks5,Subway,SG_BRAND_de80593878cb1673c62a7f338dc7e4e1,39.862009,-105.052311,08001009407,08001,Westminster
zzw-224@5q9-bq6-nwk,Subway,SG_BRAND_de80593878cb1673c62a7f338dc7e4e1,39.789907,-105.025676,08031015400,08031,Denver
zzw-224@5qd-36w-q75,Subway,SG_BRAND_de80593878cb1673c62a7f338dc7e4e1,40.686238,-111.794441,49035110104,49035,Salt Lake City
zzw-224@5w9-j2t-5fz,Subway,SG_BRAND_de80593878cb1673c62a7f338dc7e4e1,43.488798,-116.404435,16001010401,16001,Kuna
zzw-225@3x4-kdy-pjv,Subway,SG_BRAND_de80593878cb1673c62a7f338dc7e4e1,48.301266,-116.547543,16017950200,16017,Ponderay
zzw-225@5q6-7cj-h3q,Subway,SG_BRAND_de80593878cb1673c62a7f338dc7e4e1,39.915551,-104.940746,08001008529,08001,Thornton
zzw-225@5q9-bk3-c89,Subway,SG_BRAND_de80593878cb1673c62a7f338dc7e4e1,39.672007,-104.790423,08005083500,08005,Aurora
zzw-225@5qd-2h4-fzz,Subway,SG_BRAND_de80593878cb1673c62a7f338dc7e4e1,41.177233,-112.004934,49057210512,49057,Riverdale
zzw-225@5qp-t5g-89z,Subway,SG_BRAND_de80593878cb1673c62a7f338dc7e4e1,43.469231,-110.791219,56039967702,56039,Jackson
zzw-227@5wh-hbq-975,Subway,SG_BRAND_de80593878cb1673c62a7f338dc7e4e1,47.314836,-116.559894,16009950100,16009,St. Maries
zzw-229@5q9-bcv-pn5,Subway,SG_BRAND_de80593878cb1673c62a7f338dc7e4e1,39.525783,-104.939948,08035014134,08035,Highlands Ranch
zzw-22b@5q9-7fy-jd9,Subway,SG_BRAND_de80593878cb1673c62a7f338dc7e4e1,38.812186,-104.822891,08041003000,08041,Colorado Springs
zzw-22m@5q6-7ct-8d9,Subway,SG_BRAND_de80593878cb1673c62a7f338dc7e4e1,39.932824,-105.132994,08014031100,08014,Broomfield
zzy-222@5q6-7sb-brk,McDonald's,SG_BRAND_5179b21fc1d50950b99b4eecaa48c614,40.000709,-105.009432,08123002008,08123,Erie
zzy-222@5q8-75m-7qz,Subway,SG_BRAND_de80593878cb1673c62a7f338dc7e4e1,38.422575,-105.032404,08043978100,08043,Penrose
zzy-222@5q9-bqc-92k,McDonald's,SG_BRAND_5179b21fc1d50950b99b4eecaa48c614,39.769099,-105.030661,08031000303,08031,Denver
zzy-222@5qb-t93-2rk,Subway,SG_BRAND_de80593878cb1673c62a7f338dc7e4e1,39.151857,-111.817886,49039972300,49039,Gunnison
zzy-222@5qh-fbd-rhq,Subway,SG_BRAND_de80593878cb1673c62a7f338dc7e4e1,42.845175,-106.376023,56025001100,56025,Mills
zzy-222@5qk-hyr-5zz,Subway,SG_BRAND_de80593878cb1673c62a7f338dc7e4e1,40.336659,-104.98164,08123002103,08123,Johnstown
zzy-222@5wr-7jb-94v,Subway,SG_BRAND_de80593878cb1673c62a7f338dc7e4e1,42.64937,-114.44544,16053970500,16053,Jerome
zzy-222@5yy-5vy-py9,Subway,SG_BRAND_de80593878cb1673c62a7f338dc7e4e1,37.831953,-112.436368,49017000300,49017,Panguitch
zzy-222@5yz-n7d-yy9,Subway,SG_BRAND_de80593878cb1673c62a7f338dc7e4e1,37.116926,-113.596658,49053270300,49053,St George
zzy-222@5yz-n7r-8y9,Subway,SG_BRAND_de80593878cb1673c62a7f338dc7e4e1,37.103955,-113.565906,49053271300,49053,St George
zzy-223@5qc-w3v-3h5,McDonald's,SG_BRAND_5179b21fc1d50950b99b4eecaa48c614,40.688473,-112.26676,49045130703,49045,Lake Point
zzy-223@5qd-3m6-2x5,Subway,SG_BRAND_de80593878cb1673c62a7f338dc7e4e1,40.913532,-111.398151,49043964102,49043,Coalville
zzy-223@5qd-3pw-5mk,McDonald's,SG_BRAND_5179b21fc1d50950b99b4eecaa48c614,40.884669,-111.892673,49011126700,49011,Bountiful
zzy-223@5qf-qcm-2x5,Subway,SG_BRAND_de80593878cb1673c62a7f338dc7e4e1,39.45489,-108.050156,08045952100,08045,Parachute
zzy-223@5qk-jcc-rzf,McDonald's,SG_BRAND_5179b21fc1d50950b99b4eecaa48c614,40.159321,-104.980217,08123002010,08123,Longmont
zzy-223@5w9-hw5-mx5,Subway,SG_BRAND_de80593878cb1673c62a7f338dc7e4e1,43.7204,-116.320871,16001010224,16001,Eagle
zzy-224@5q6-3s3-sh5,McDonald's,SG_BRAND_5179b21fc1d50950b99b4eecaa48c614,39.741521,-105.496904,08019014800,08019,Idaho Springs
zzy-224@5qc-732-ty9,Subway,SG_BRAND_de80593878cb1673c62a7f338dc7e4e1,39.543172,-110.689169,49007000100,49007,Wellington
zzy-225@5qd-sh5-jjv,Subway,SG_BRAND_de80593878cb1673c62a7f338dc7e4e1,37.276828,-107.882224,08067971100,08067,Durango
zzy-226@5q5-rm9-87q,McDonald's,SG_BRAND_5179b21fc1d50950b99b4eecaa48c614,40.468382,-106.825666,08107000600,08107,Steamboat Springs
zzy-226@5q8-35r-3dv,Subway,SG_BRAND_de80593878cb1673c62a7f338dc7e4e1,38.131289,-105.463364,08027970100,08027,Westcliffe
zzy-229@5q6-29d-2ff,Subway,SG_BRAND_de80593878cb1673c62a7f338dc7e4e1,39.918437,-105.784254,08049000202,08049,Winter Park
222-222@5q6-76c-tqf,McDonald's,SG_BRAND_5179b21fc1d50950b99b4eecaa48c614,39.961237,-105.162738,08013060700,08013,Louisville
222-222@5q6-784-p9z,Subway,SG_BRAND_de80593878cb1673c62a7f338dc7e4e1,39.987361,-105.125185,08013012904,08013,Louisville
222-222@5q6-7bz-fxq,McDonald's,SG_BRAND_5179b21fc1d50950b99b4eecaa48c614,39.929036,-105.012837,08001060100,08001,Westminster
222-222@5q6-7tc-s89,McDonald's,SG_BRAND_5179b21fc1d50950b99b4eecaa48c614,40.001373,-105.103696,08013012903,08013,Lafayette
222-222@5q6-mmk-73q,Subway,SG_BRAND_de80593878cb1673c62a7f338dc7e4e1,39.550851,-107.327351,08045951600,08045,Glenwood Springs
222-222@5q7-6m3-k9f,McDonald's,SG_BRAND_5179b21fc1d50950b99b4eecaa48c614,40.556001,-105.07757,08069000901,08069,Fort Collins
222-222@5q8-m7c-x5z,McDonald's,SG_BRAND_5179b21fc1d50950b99b4eecaa48c614,37.475495,-105.894049,08003960200,08003,Alamosa
222-222@5q9-6zp-tvz,Subway,SG_BRAND_de80593878cb1673c62a7f338dc7e4e1,38.854038,-104.756135,08041006000,08041,Colorado Springs
222-222@5q9-7f4-fxq,McDonald's,SG_BRAND_5179b21fc1d50950b99b4eecaa48c614,38.795478,-104.756932,08041006400,08041,Colorado Springs
222-222@5q9-9xb-qfz,McDonald's,SG_BRAND_5179b21fc1d50950b99b4eecaa48c614,39.653502,-104.906808,08031006812,08031,Denver
222-222@5q9-9yq-3yv,McDonald's,SG_BRAND_5179b21fc1d50950b99b4eecaa48c614,39.690645,-104.865301,08005080200,08005,Aurora
222-222@5q9-9zv-3bk,McDonald's,SG_BRAND_5179b21fc1d50950b99b4eecaa48c614,39.706103,-104.92032,08031005001,08031,Denver
222-222@5q9-b3j-bkz,McDonald's,SG_BRAND_5179b21fc1d50950b99b4eecaa48c614,39.550627,-104.774024,08035013901,08035,Parker
222-222@5q9-b9t-68v,McDonald's,SG_BRAND_5179b21fc1d50950b99b4eecaa48c614,39.41224,-104.872959,08035014123,08035,Castle Rock
222-222@5q9-bbx-j9z,McDonald's,SG_BRAND_5179b21fc1d50950b99b4eecaa48c614,39.538518,-104.884947,08035014116,08035,Lone Tree
222-222@5q9-bdp-mp9,McDonald's,SG_BRAND_5179b21fc1d50950b99b4eecaa48c614,39.777113,-104.847581,08031980100,08031,Denver
222-222@5q9-bnq-xkf,McDonald's,SG_BRAND_5179b21fc1d50950b99b4eecaa48c614,39.744322,-105.053741,08059011401,08059,Edgewater
222-222@5qb-wkn-2x5,McDonald's,SG_BRAND_5179b21fc1d50950b99b4eecaa48c614,39.351988,-112.568436,49027974100,49027,Delta
222-222@5qc-w6r-ckf,McDonald's,SG_BRAND_5179b21fc1d50950b99b4eecaa48c614,40.587247,-111.927926,49035114200,49035,West Jordan
222-222@5qc-x75-kpv,McDonald's,SG_BRAND_5179b21fc1d50950b99b4eecaa48c614,40.274313,-111.712705,49049001201,49049,Orem
222-222@5qc-xmp-dvz,McDonald's,SG_BRAND_5179b21fc1d50950b99b4eecaa48c614,40.620257,-111.902107,49035112404,49035,Midvale
222-222@5qc-xtb-ndv,McDonald's,SG_BRAND_5179b21fc1d50950b99b4eecaa48c614,40.544581,-111.982139,49035113019,49035,South Jordan
222-222@5qd-2h4-dd9,McDonald's,SG_BRAND_5179b21fc1d50950b99b4eecaa48c614,41.177343,-112.001393,49057210512,49057,Riverdale
222-222@5qh-syj-xnq,Subway,SG_BRAND_de80593878cb1673c62a7f338dc7e4e1,44.268305,-105.509095,56005000200,56005,Gillette
222-222@5qk-jcs-6x5,McDonald's,SG_BRAND_5179b21fc1d50950b99b4eecaa48c614,40.192546,-105.101728,08013013505,08013,Longmont
222-222@5qn-zq5-ks5,McDonald's,SG_BRAND_5179b21fc1d50950b99b4eecaa48c614,41.57685,-109.255985,56037970903,56037,Rock Springs
222-222@5qp-r9g-45f,McDonald's,SG_BRAND_5179b21fc1d50950b99b4eecaa48c614,43.638069,-108.212876,56017967800,56017,Thermopolis
222-222@5r9-m2q-x5z,McDonald's,SG_BRAND_5179b21fc1d50950b99b4eecaa48c614,38.099553,-102.619429,08099000200,08099,Lamar
222-222@5sy-4gd-xwk,McDonald's,SG_BRAND_5179b21fc1d50950b99b4eecaa48c614,44.826917,-106.95949,56033000600,56033,Sheridan
222-222@5sy-bxw-2tv,McDonald's,SG_BRAND_5179b21fc1d50950b99b4eecaa48c614,44.516155,-109.054062,56029965500,56029,Cody
222-222@5w9-hmz-pvz,McDonald's,SG_BRAND_5179b21fc1d50950b99b4eecaa48c614,43.618926,-116.435871,16001010334,16001,Meridian
222-222@5wj-frg-rzf,Subway,SG_BRAND_de80593878cb1673c62a7f338dc7e4e1,46.495698,-116.299023,16035940000,16035,Orofino
222-222@5wq-sfz-dvz,Subway,SG_BRAND_de80593878cb1673c62a7f338dc7e4e1,42.607344,-113.680423,16067970500,16067,Rupert
222-222@5wr-5qq-kcq,McDonald's,SG_BRAND_5179b21fc1d50950b99b4eecaa48c614,42.594163,-114.749756,16083000300,16083,Buhl
222-222@5wr-hfr-z2k,Subway,SG_BRAND_de80593878cb1673c62a7f338dc7e4e1,42.654317,-111.601069,16029960100,16029,Soda Springs
222-222@5yz-39k-jvz,Subway,SG_BRAND_de80593878cb1673c62a7f338dc7e4e1,38.937802,-111.854,49041975100,49041,Salina
222-222@5yz-n7r-649,McDonald's,SG_BRAND_5179b21fc1d50950b99b4eecaa48c614,37.109384,-113.566613,49053270300,49053,St George
222-223@5q6-76c-k9f,Subway,SG_BRAND_de80593878cb1673c62a7f338dc7e4e1,39.960875,-105.166049,08013012710,08013,Louisville
222-223@5q6-7c9-r49,McDonald's,SG_BRAND_5179b21fc1d50950b99b4eecaa48c614,39.884165,-104.944131,08001009206,08001,Thornton
222-223@5q9-b38-vs5,Subway,SG_BRAND_de80593878cb1673c62a7f338dc7e4e1,39.540559,-104.808136,08035014005,08035,Stonegate
222-223@5qk-jnw-4qf,McDonald's,SG_BRAND_5179b21fc1d50950b99b4eecaa48c614,40.42239,-104.727622,08123001201,08123,Greeley
222-224@5q9-778-vxq,Subway,SG_BRAND_de80593878cb1673c62a7f338dc7e4e1,38.867226,-104.678505,08041005111,08041,Colorado Springs
222-224@5qc-x75-nnq,Subway,SG_BRAND_de80593878cb1673c62a7f338dc7e4e1,40.279079,-111.715995,49049001103,49049,Orem
222-224@5qk-y6y-j5f,Subway,SG_BRAND_de80593878cb1673c62a7f338dc7e4e1,40.271265,-103.622728,08087000700,08087,Brush
222-224@5w9-v2n-c3q,Subway,SG_BRAND_de80593878cb1673c62a7f338dc7e4e1,43.778373,-116.929707,16027022100,16027,Parma
222-225@5qk-p8k-z4v,Subway,SG_BRAND_de80593878cb1673c62a7f338dc7e4e1,40.522498,-104.712001,08123001500,08123,Eaton
222-226@3x5-4jz-y35,Subway,SG_BRAND_de80593878cb1673c62a7f338dc7e4e1,47.704062,-117.029899,16055000401,16055,Post Falls
222-227@5q9-bk4-bff,Subway,SG_BRAND_de80593878cb1673c62a7f338dc7e4e1,39.723753,-104.784015,08005007104,08005,Aurora
223-222@5q6-7qr-bp9,McDonald's,SG_BRAND_5179b21fc1d50950b99b4eecaa48c614,40.153518,-105.103147,08013013210,08013,Longmont
223-222@5q7-zcw-ckf,McDonald's,SG_BRAND_5179b21fc1d50950b99b4eecaa48c614,38.288006,-104.597242,08101000904,08101,Pueblo
223-222@5q8-6zw-33q,Subway,SG_BRAND_de80593878cb1673c62a7f338dc7e4e1,38.448587,-105.220072,08043978300,08043,Canon City
223-222@5q9-9yf-6c5,McDonald's,SG_BRAND_5179b21fc1d50950b99b4eecaa48c614,39.566996,-104.923642,08005005629,08005,Centennial
223-222@5q9-bbz-cwk,Subway,SG_BRAND_de80593878cb1673c62a7f338dc7e4e1,39.535783,-104.848138,08035014011,08035,Meridian
223-222@5q9-bp5-fj9,McDonald's,SG_BRAND_5179b21fc1d50950b99b4eecaa48c614,39.691141,-104.992774,08031001403,08031,Denver
223-222@5q9-br4-68v,McDonald's,SG_BRAND_5179b21fc1d50950b99b4eecaa48c614,39.771812,-105.081013,08059010603,08059,Wheat Ridge
223-222@5qc-w7y-qpv,McDonald's,SG_BRAND_5179b21fc1d50950b99b4eecaa48c614,40.696987,-111.974038,49035113308,49035,West Valley City
223-222@5qc-w95-xnq,Subway,SG_BRAND_de80593878cb1673c62a7f338dc7e4e1,40.697315,-112.091265,49035113904,49035,Magna
223-222@5qc-x6g-3dv,McDonald's,SG_BRAND_5179b21fc1d50950b99b4eecaa48c614,40.297433,-111.69571,49049000802,49049,Orem
223-222@5qc-x87-jgk,McDonald's,SG_BRAND_5179b21fc1d50950b99b4eecaa48c614,40.354909,-111.736171,49049000601,49049,Pleasant Grove
223-222@5qc-zy5-pgk,McDonald's,SG_BRAND_5179b21fc1d50950b99b4eecaa48c614,41.091105,-112.002547,49011125801,49011,Layton
223-222@5qd-22s-mc5,McDonald's,SG_BRAND_5179b21fc1d50950b99b4eecaa48c614,41.164991,-112.026589,49057210701,49057,Roy
223-222@5qd-2h9-g49,Subway,SG_BRAND_de80593878cb1673c62a7f338dc7e4e1,41.223895,-112.026224,49057210505,49057,West Haven
223-222@5qd-2j8-835,McDonald's,SG_BRAND_5179b21fc1d50950b99b4eecaa48c614,41.307205,-112.023238,49057210304,49057,Farr West
223-222@5qg-2bz-xbk,McDonald's,SG_BRAND_5179b21fc1d50950b99b4eecaa48c614,38.544844,-106.917394,08051963700,08051,Gunnison
223-222@5qk-j6z-ch5,McDonald's,SG_BRAND_5179b21fc1d50950b99b4eecaa48c614,40.334153,-104.906672,08123002102,08123,Johnstown
223-222@5rb-v23-49z,McDonald's,SG_BRAND_5179b21fc1d50950b99b4eecaa48c614,39.296714,-102.278337,08063962100,08063,Burlington
223-222@5w9-hnr-cbk,Subway,SG_BRAND_de80593878cb1673c62a7f338dc7e4e1,43.617563,-116.39131,16001010321,16001,Meridian
223-222@5w9-hnv-mrk,McDonald's,SG_BRAND_5179b21fc1d50950b99b4eecaa48c614,43.633522,-116.353487,16001010331,16001,Meridian
223-222@5wd-csh-xnq,Subway,SG_BRAND_de80593878cb1673c62a7f338dc7e4e1,46.412372,-117.001254,16069960600,16069,Lewiston
223-222@5wh-bhw-q75,McDonald's,SG_BRAND_5179b21fc1d50950b99b4eecaa48c614,47.547428,-116.133524,16079960300,16079,Kellogg
223-222@5yz-3h5-6x5,Subway,SG_BRAND_de80593878cb1673c62a7f338dc7e4e1,38.786201,-112.084258,49041975400,49041,Richfield
223-223@5q9-bdp-ks5,Subway,SG_BRAND_de80593878cb1673c62a7f338dc7e4e1,39.781235,-104.845567,08031008312,08031,Denver
223-224@5q7-zdx-6kz,Subway,SG_BRAND_de80593878cb1673c62a7f338dc7e4e1,38.321513,-104.702086,08101002912,08101,Pueblo West
223-224@5q8-mmf-tvz,Subway,SG_BRAND_de80593878cb1673c62a7f338dc7e4e1,37.678192,-106.351479,08105976800,08105,Del Norte
223-224@5q9-b5z-59f,McDonald's,SG_BRAND_5179b21fc1d50950b99b4eecaa48c614,39.566663,-105.081793,08059012055,08059,Columbine
223-225@5qk-j2q-mp9,Subway,SG_BRAND_de80593878cb1673c62a7f338dc7e4e1,40.435616,-104.986863,08069001709,08069,Loveland
223-226@5qc-wr5-7wk,Subway,SG_BRAND_de80593878cb1673c62a7f338dc7e4e1,40.784281,-111.937797,49035100308,49035,Salt Lake City
224-222@5q6-79b-wff,Subway,SG_BRAND_de80593878cb1673c62a7f338dc7e4e1,39.914899,-105.056637,08014030300,08014,Broomfield
224-222@5q6-pnh-8d9,McDonald's,SG_BRAND_5179b21fc1d50950b99b4eecaa48c614,39.521314,-107.777334,08045952002,08045,Rifle
224-222@5q7-zdw-kfz,McDonald's,SG_BRAND_5179b21fc1d50950b99b4eecaa48c614,38.324895,-104.699474,08101002918,08101,Pueblo West
224-222@5q7-zhv-dn5,McDonald's,SG_BRAND_5179b21fc1d50950b99b4eecaa48c614,38.24505,-104.58003,08101003103,08101,Pueblo
224-222@5q9-bd4-c89,McDonald's,SG_BRAND_5179b21fc1d50950b99b4eecaa48c614,39.548935,-104.995433,08035014126,08035,Highlands Ranch
224-222@5qc-w6r-rc5,Subway,SG_BRAND_de80593878cb1673c62a7f338dc7e4e1,40.587369,-111.93808,49035112918,49035,West Jordan
224-222@5qc-x87-hqz,Subway,SG_BRAND_de80593878cb1673c62a7f338dc7e4e1,40.358168,-111.740163,49049000509,49049,Pleasant Grove
224-222@5qc-xjy-c89,Subway,SG_BRAND_de80593878cb1673c62a7f338dc7e4e1,40.560383,-111.938251,49035113011,49035,South Jordan
224-222@5qd-22p-f75,McDonald's,SG_BRAND_5179b21fc1d50950b99b4eecaa48c614,41.140905,-112.063711,49011125304,49011,Clinton
224-222@5qd-2fv-2tv,Subway,SG_BRAND_de80593878cb1673c62a7f338dc7e4e1,41.244042,-111.976934,49057200400,49057,Ogden
224-222@5qd-2fv-5zz,McDonald's,SG_BRAND_5179b21fc1d50950b99b4eecaa48c614,41.245599,-111.970467,49057200400,49057,Ogden
224-222@5qm-pwv-k75,McDonald's,SG_BRAND_5179b21fc1d50950b99b4eecaa48c614,41.17159,-104.829259,56021001200,56021,Cheyenne
224-222@5yy-mkp-rhq,McDonald's,SG_BRAND_5179b21fc1d50950b99b4eecaa48c614,37.681146,-113.076498,49021110500,49021,Cedar City
224-224@3x5-4pp-kcq,Subway,SG_BRAND_de80593878cb1673c62a7f338dc7e4e1,47.754975,-116.792232,16055001001,16055,Hayden
224-225@5qh-f8w-yy9,Subway,SG_BRAND_de80593878cb1673c62a7f338dc7e4e1,42.811062,-106.402203,56025001000,56025,Casper
224-228@5qc-wpk-8sq,Subway,SG_BRAND_de80593878cb1673c62a7f338dc7e4e1,40.772312,-111.939929,49035100306,49035,Salt Lake City
224-229@5q9-bqr-dd9,Subway,SG_BRAND_de80593878cb1673c62a7f338dc7e4e1,39.710624,-104.987895,08031002100,08031,Denver
225-222@5q9-9yd-389,Subway,SG_BRAND_de80593878cb1673c62a7f338dc7e4e1,39.582165,-104.959556,08005005627,08005,Centennial
225-222@5qb-fvc-49z,McDonald's,SG_BRAND_5179b21fc1d50950b99b4eecaa48c614,40.499882,-111.413982,49051960100,49051,Heber
225-222@5qc-w82-dy9,Subway,SG_BRAND_de80593878cb1673c62a7f338dc7e4e1,40.680259,-111.9375,49035113511,49035,Taylorsville
225-222@5qc-zzr-dvz,Subway,SG_BRAND_de80593878cb1673c62a7f338dc7e4e1,41.15915,-111.941638,49057210900,49057,South Ogden
225-222@5w9-hmr-cyv,McDonald's,SG_BRAND_5179b21fc1d50950b99b4eecaa48c614,43.693318,-116.353648,16001010225,16001,Eagle
225-222@5wf-y57-5pv,Subway,SG_BRAND_de80593878cb1673c62a7f338dc7e4e1,43.832753,-111.778537,16065950200,16065,Rexburg
225-222@5wr-7k9-p35,Subway,SG_BRAND_de80593878cb1673c62a7f338dc7e4e1,42.564362,-114.605485,16083000500,16083,Filer
225-223@5w9-hny-8y9,Subway,SG_BRAND_de80593878cb1673c62a7f338dc7e4e1,43.598624,-116.393111,16001010321,16001,Meridian
225-229@5q9-bjw-xbk,Subway,SG_BRAND_de80593878cb1673c62a7f338dc7e4e1,39.693987,-104.789306,08005082700,08005,Aurora
226-222@5qc-x2s-hdv,McDonald's,SG_BRAND_5179b21fc1d50950b99b4eecaa48c614,40.373977,-111.787527,49049000400,49049,American Fork
226-222@5qd-2fp-pjv,Subway,SG_BRAND_de80593878cb1673c62a7f338dc7e4e1,41.268141,-111.970258,49057210302,49057,Harrisville
226-222@5wr-7jm-qpv,McDonald's,SG_BRAND_5179b21fc1d50950b99b4eecaa48c614,42.694775,-114.519131,16053970500,16053,Jerome
226-222@5wr-ddd-fzz,Subway,SG_BRAND_de80593878cb1673c62a7f338dc7e4e1,43.389035,-112.117972,16011950100,16011,Shelley
226-223@5qn-7gg-hwk,Subway,SG_BRAND_de80593878cb1673c62a7f338dc7e4e1,42.865987,-109.874751,56035000102,56035,Pinedale
226-225@5qd-38t-7dv,Subway,SG_BRAND_de80593878cb1673c62a7f338dc7e4e1,40.73852,-111.899376,49035102900,49035,Salt Lake City
227-222@5q9-9xy-nnq,Subway,SG_BRAND_de80593878cb1673c62a7f338dc7e4e1,39.631481,-104.987469,08005006300,08005,Englewood
227-224@5q9-brb-3wk,Subway,SG_BRAND_de80593878cb1673c62a7f338dc7e4e1,39.790786,-105.078048,08059010405,08059,Arvada
227-226@5w9-jbj-5j9,Subway,SG_BRAND_de80593878cb1673c62a7f338dc7e4e1,43.60237,-116.172666,16001000701,16001,Boise
228-222@5q9-bfw-zfz,Subway,SG_BRAND_de80593878cb1673c62a7f338dc7e4e1,39.740583,-104.902558,08031004403,08031,Denver
228-222@5q9-bfx-fcq,McDonald's,SG_BRAND_5179b21fc1d50950b99b4eecaa48c614,39.740387,-104.915663,08031004202,08031,Denver
228-222@5qc-w88-cqz,Subway,SG_BRAND_de80593878cb1673c62a7f338dc7e4e1,40.70194,-111.938553,49035113305,49035,West Valley City
228-222@5qc-wg2-3h5,Subway,SG_BRAND_de80593878cb1673c62a7f338dc7e4e1,40.539457,-112.297952,49045131002,49045,Tooele
228-222@5qk-k8x-py9,Subway,SG_BRAND_de80593878cb1673c62a7f338dc7e4e1,39.952508,-104.781126,08001008523,08001,Brighton
229-222@5qc-qy6-t7q,McDonald's,SG_BRAND_5179b21fc1d50950b99b4eecaa48c614,40.302667,-109.982132,49013940500,49013,Roosevelt
229-222@5qd-38z-nqz,McDonald's,SG_BRAND_5179b21fc1d50950b99b4eecaa48c614,40.768315,-111.888856,49035114000,49035,Salt Lake City
229-222@5qk-j2j-3bk,Subway,SG_BRAND_de80593878cb1673c62a7f338dc7e4e1,40.409635,-105.002928,08069001709,08069,Loveland
229-222@5w9-hpt-kmk,Subway,SG_BRAND_de80593878cb1673c62a7f338dc7e4e1,43.706621,-116.621494,16027021901,16027,Middleton
22b-222@5w9-j9s-26k,McDonald's,SG_BRAND_5179b21fc1d50950b99b4eecaa48c614,43.593827,-116.214175,16001001500,16001,Boise
22c-222@5q6-789-kxq,Subway,SG_BRAND_de80593878cb1673c62a7f338dc7e4e1,40.030848,-105.257564,08013012203,08013,Boulder
22c-226@5q9-bkf-wx5,Subway,SG_BRAND_de80593878cb1673c62a7f338dc7e4e1,39.637994,-104.76265,08005085900,08005,Aurora
22h-222@5qd-24g-7qz,Subway,SG_BRAND_de80593878cb1673c62a7f338dc7e4e1,41.040617,-111.941127,49011126204,49011,Kaysville
22j-222@5q9-b62-435,Subway,SG_BRAND_de80593878cb1673c62a7f338dc7e4e1,39.594929,-105.071855,08059012051,08059,Columbine
22k-222@5q9-b38-fs5,Subway,SG_BRAND_de80593878cb1673c62a7f338dc7e4e1,39.536323,-104.792186,08035014010,08035,Parker
22t-222@5q9-9yr-94v,Subway,SG_BRAND_de80593878cb1673c62a7f338dc7e4e1,39.67432,-104.831624,08005080500,08005,Aurora
22y-222@5q9-728-835,Subway,SG_BRAND_de80593878cb1673c62a7f338dc7e4e1,38.92783,-104.830864,08041003706,08041,Colorado Springs
zzw-222@5q6-58w-qzz,Subway,SG_BRAND_de80593878cb1673c62a7f338dc7e4e1,39.609095,-105.953317,08117000200,08117,Keystone
zzw-222@5q6-685-89z,Subway,SG_BRAND_de80593878cb1673c62a7f338dc7e4e1,40.379352,-105.516091,08069002801,08069,Estes Park
zzw-222@5q7-6m4-grk,Subway,SG_BRAND_de80593878cb1673c62a7f338dc7e4e1,40.568446,-105.083379,08069000600,08069,Fort Collins
zzw-222@5q8-jvw-rc5,Subway,SG_BRAND_de80593878cb1673c62a7f338dc7e4e1,37.574945,-106.129516,08105976700,08105,Monte Vista
zzw-222@5q9-b6f-syv,Subway,SG_BRAND_de80593878cb1673c62a7f338dc7e4e1,39.547341,-105.034363,08035014130,08035,Highlands Ranch
zzw-222@5q9-b6x-73q,Subway,SG_BRAND_de80593878cb1673c62a7f338dc7e4e1,39.581498,-105.131767,08059012022,08059,Littleton
zzw-222@5q9-b9s-zzz,Subway,SG_BRAND_de80593878cb1673c62a7f338dc7e4e1,39.408323,-104.861651,08035014503,08035,Castle Rock
zzw-222@5q9-bft-2zf,Subway,SG_BRAND_de80593878cb1673c62a7f338dc7e4e1,39.80162,-104.97649,08001015000,08001,North Washington
zzw-222@5qb-9z8-w6k,Subway,SG_BRAND_de80593878cb1673c62a7f338dc7e4e1,40.122522,-111.654252,49049003201,49049,Spanish Fork
zzw-222@5qb-t67-m6k,Subway,SG_BRAND_de80593878cb1673c62a7f338dc7e4e1,39.252084,-112.109751,49027974300,49027,Scipio
zzw-222@5qc-x6f-9cq,McDonald's,SG_BRAND_5179b21fc1d50950b99b4eecaa48c614,40.312494,-111.722595,49049000706,49049,Orem
zzw-222@5qc-xjt-brk,McDonald's,SG_BRAND_5179b21fc1d50950b99b4eecaa48c614,40.526418,-111.889336,49035112819,49035,Draper
zzw-222@5qc-xmj-5xq,Subway,SG_BRAND_de80593878cb1673c62a7f338dc7e4e1,40.584556,-111.862598,49035112612,49035,Sandy
zzw-222@5qd-38y-kfz,Subway,SG_BRAND_de80593878cb1673c62a7f338dc7e4e1,40.764332,-111.853548,49035101500,49035,Salt Lake City
zzw-222@5qf-r43-hqz,Subway,SG_BRAND_de80593878cb1673c62a7f338dc7e4e1,38.892008,-107.928212,08029965200,08029,Cedaredge
zzw-222@5qh-2ws-gp9,McDonald's,SG_BRAND_5179b21fc1d50950b99b4eecaa48c614,42.05889,-104.174514,56015957900,56015,Torrington
zzw-222@5qn-zrz-tqf,McDonald's,SG_BRAND_5179b21fc1d50950b99b4eecaa48c614,41.610036,-109.230904,56037970902,56037,Rock Springs
zzw-222@5r9-m2q-x89,Subway,SG_BRAND_de80593878cb1673c62a7f338dc7e4e1,38.098464,-102.618673,08099000200,08099,Lamar
zzw-222@5wr-gfw-xyv,McDonald's,SG_BRAND_5179b21fc1d50950b99b4eecaa48c614,42.889941,-112.451862,16005001400,16005,Pocatello
zzw-223@5q6-423-pvz,Subway,SG_BRAND_de80593878cb1673c62a7f338dc7e4e1,39.71496,-105.694719,08019014900,08019,Georgetown
zzw-223@5q7-c2p-g8v,Subway,SG_BRAND_de80593878cb1673c62a7f338dc7e4e1,41.144136,-104.862414,56021001100,56021,Warren AFB
zzw-223@5q7-zcv-mx5,McDonald's,SG_BRAND_5179b21fc1d50950b99b4eecaa48c614,38.308443,-104.617394,08101002903,08101,Pueblo
zzw-223@5q8-5jg-wrk,Subway,SG_BRAND_de80593878cb1673c62a7f338dc7e4e1,38.682905,-104.703848,08041004511,08041,Fountain
zzw-223@5q8-6zv-qxq,Subway,SG_BRAND_de80593878cb1673c62a7f338dc7e4e1,38.439003,-105.240082,08043978600,08043,Canon City
zzw-223@5q9-7f8-2ff,Subway,SG_BRAND_de80593878cb1673c62a7f338dc7e4e1,38.807346,-104.782186,08041002800,08041,Colorado Springs
zzw-223@5q9-bqb-hwk,Subway,SG_BRAND_de80593878cb1673c62a7f338dc7e4e1,39.760478,-105.024821,08031000402,08031,Denver
zzw-223@5qc-c73-cbk,Subway,SG_BRAND_de80593878cb1673c62a7f338dc7e4e1,41.264834,-110.977649,56041975400,56041,Evanston
zzw-223@5qc-x2z-f9f,McDonald's,SG_BRAND_5179b21fc1d50950b99b4eecaa48c614,40.387986,-111.914384,49049010109,49049,Saratoga Springs
zzw-223@5w9-vnr-3wk,Subway,SG_BRAND_de80593878cb1673c62a7f338dc7e4e1,44.246317,-116.957674,16087970200,16087,Weiser
zzw-223@5wd-csn-z9f,Subway,SG_BRAND_de80593878cb1673c62a7f338dc7e4e1,46.385045,-116.981706,16069960600,16069,Lewiston
zzw-223@5wr-7m7-jjv,Subway,SG_BRAND_de80593878cb1673c62a7f338dc7e4e1,42.586253,-114.459514,16083000900,16083,Twin Falls
zzw-223@5yy-8jw-9xq,McDonald's,SG_BRAND_5179b21fc1d50950b99b4eecaa48c614,37.043285,-112.525087,49025130200,49025,Kanab
zzw-224@5q9-4m2-6rk,Subway,SG_BRAND_de80593878cb1673c62a7f338dc7e4e1,39.463868,-104.651096,08039961204,08039,Parker
zzw-224@5q9-7j5-rp9,Subway,SG_BRAND_de80593878cb1673c62a7f338dc7e4e1,39.026537,-104.822716,08041007201,08041,Colorado Springs
zzw-224@5qc-zyy-9pv,McDonald's,SG_BRAND_5179b21fc1d50950b99b4eecaa48c614,41.088645,-112.042724,49011125406,49011,Syracuse
zzw-225@5q9-b42-4jv,Subway,SG_BRAND_de80593878cb1673c62a7f338dc7e4e1,39.516473,-104.767247,08035013905,08035,Parker
zzw-226@5q9-9y6-pgk,Subway,SG_BRAND_de80593878cb1673c62a7f338dc7e4e1,39.653787,-104.989189,08005005700,08005,Englewood
zzw-226@5ws-gqc-j9z,Subway,SG_BRAND_de80593878cb1673c62a7f338dc7e4e1,41.947093,-111.393863,49033950100,49033,Garden City
zzw-227@5q9-6z9-8y9,Subway,SG_BRAND_de80593878cb1673c62a7f338dc7e4e1,38.911741,-104.787394,08041004800,08041,Colorado Springs
zzw-227@5q9-73f-99f,Subway,SG_BRAND_de80593878cb1673c62a7f338dc7e4e1,38.911663,-104.715871,08041005106,08041,Colorado Springs
zzw-229@5q9-bbx-6c5,Subway,SG_BRAND_de80593878cb1673c62a7f338dc7e4e1,39.538574,-104.883576,08035014116,08035,Lone Tree
zzw-22g@5qk-k8k-87q,Subway,SG_BRAND_de80593878cb1673c62a7f338dc7e4e1,39.987792,-104.802893,08001008604,08001,Brighton
zzw-22h@5q9-bnm-hbk,Subway,SG_BRAND_de80593878cb1673c62a7f338dc7e4e1,39.711543,-105.074766,08059011602,08059,Lakewood
zzy-222@5q6-33j-zcq,McDonald's,SG_BRAND_5179b21fc1d50950b99b4eecaa48c614,40.06239,-105.927294,08049000202,08049,Granby
zzy-222@5q6-33j-zj9,Subway,SG_BRAND_de80593878cb1673c62a7f338dc7e4e1,40.062384,-105.927603,08049000202,08049,Granby
zzy-222@5q8-7dj-j35,Subway,SG_BRAND_de80593878cb1673c62a7f338dc7e4e1,38.686411,-104.777442,08041004403,08041,Fort Carson
zzy-222@5q9-6zs-z75,Subway,SG_BRAND_de80593878cb1673c62a7f338dc7e4e1,38.87328,-104.722198,08041005800,08041,Colorado Springs
zzy-222@5q9-bqk-qj9,Subway,SG_BRAND_de80593878cb1673c62a7f338dc7e4e1,39.738281,-104.993113,08031002000,08031,Denver
zzy-222@5qc-6v9-kzz,Subway,SG_BRAND_de80593878cb1673c62a7f338dc7e4e1,39.323814,-110.96486,49015976200,49015,Huntington
zzy-222@5qc-w6j-qmk,McDonald's,SG_BRAND_5179b21fc1d50950b99b4eecaa48c614,40.653413,-111.984379,49035113521,49035,Taylorsville
zzy-222@5qd-36z-7dv,Subway,SG_BRAND_de80593878cb1673c62a7f338dc7e4e1,40.699521,-111.887351,49035111701,49035,South Salt Lake
zzy-222@5qn-wxq-59f,Subway,SG_BRAND_de80593878cb1673c62a7f338dc7e4e1,42.736918,-110.932523,56023978100,56023,Afton
zzy-222@5w9-c6w-6p9,Subway,SG_BRAND_de80593878cb1673c62a7f338dc7e4e1,44.970921,-116.280924,16003950100,16003,New Meadows
zzy-222@5yy-q7q-835,Subway,SG_BRAND_de80593878cb1673c62a7f338dc7e4e1,38.299454,-111.402422,49055979100,49055,Torrey
zzy-222@5yz-n88-vfz,McDonald's,SG_BRAND_5179b21fc1d50950b99b4eecaa48c614,37.127566,-113.521565,49053270802,49053,Washington
zzy-224@5w8-ctf-mp9,Subway,SG_BRAND_de80593878cb1673c62a7f338dc7e4e1,44.513408,-116.039988,16085970100,16085,Cascade
zzy-225@5q6-4rj-99f,Subway,SG_BRAND_de80593878cb1673c62a7f338dc7e4e1,40.058745,-106.39142,08049000100,08049,Kremmling
zzy-225@5q6-685-6x5,Subway,SG_BRAND_de80593878cb1673c62a7f338dc7e4e1,40.376302,-105.521683,08069002802,08069,Estes Park
zzy-228@5q9-7d4-mx5,Subway,SG_BRAND_de80593878cb1673c62a7f338dc7e4e1,38.737752,-104.795306,08041004401,08041,Fort Carson
222-222@3x5-43v-kj9,McDonald's,SG_BRAND_5179b21fc1d50950b99b4eecaa48c614,47.711395,-116.999325,16055000401,16055,Post Falls
222-222@3x5-4n5-p35,McDonald's,SG_BRAND_5179b21fc1d50950b99b4eecaa48c614,47.693732,-116.804164,16055000900,16055,Coeur D Alene
222-222@5q6-3y8-c3q,McDonald's,SG_BRAND_5179b21fc1d50950b99b4eecaa48c614,39.699882,-105.329643,08059009846,08059,Golden
222-222@5q6-7b2-k75,McDonald's,SG_BRAND_5179b21fc1d50950b99b4eecaa48c614,39.877186,-105.096302,08059009829,08059,Westminster
222-222@5q6-7b2-k9f,Subway,SG_BRAND_de80593878cb1673c62a7f338dc7e4e1,39.877746,-105.098154,08059009829,08059,Westminster
222-222@5q6-7bf-2kz,McDonald's,SG_BRAND_5179b21fc1d50950b99b4eecaa48c614,39.842211,-105.082508,08059009834,08059,Arvada
222-222@5q6-7jg-skf,Subway,SG_BRAND_de80593878cb1673c62a7f338dc7e4e1,39.765601,-105.23379,08059009808,08059,Golden
222-222@5q7-3wz-6p9,McDonald's,SG_BRAND_5179b21fc1d50950b99b4eecaa48c614,41.793475,-107.212158,56007967700,56007,Rawlins
222-222@5q7-6nh-nkf,Subway,SG_BRAND_de80593878cb1673c62a7f338dc7e4e1,40.608854,-105.075339,08069001305,08069,Fort Collins
222-222@5q7-9nc-4qf,Subway,SG_BRAND_de80593878cb1673c62a7f338dc7e4e1,41.309713,-105.574641,56001963600,56001,Laramie
222-222@5q7-yy8-75z,Subway,SG_BRAND_de80593878cb1673c62a7f338dc7e4e1,38.219041,-104.626155,08101002300,08101,Pueblo
222-222@5q8-yzc-kmk,Subway,SG_BRAND_de80593878cb1673c62a7f338dc7e4e1,37.626979,-104.782262,08055960600,08055,Walsenburg
222-222@5q9-6zm-n5z,McDonald's,SG_BRAND_5179b21fc1d50950b99b4eecaa48c614,38.8708,-104.720803,08041005900,08041,Colorado Springs
222-222@5q9-6zp-rff,McDonald's,SG_BRAND_5179b21fc1d50950b99b4eecaa48c614,38.850772,-104.757885,08041002000,08041,Colorado Springs
222-222@5q9-72m-wzf,McDonald's,SG_BRAND_5179b21fc1d50950b99b4eecaa48c614,38.897409,-104.828705,08041000302,08041,Colorado Springs
222-222@5q9-73d-9fz,McDonald's,SG_BRAND_5179b21fc1d50950b99b4eecaa48c614,38.910156,-104.716728,08041005105,08041,Colorado Springs
222-222@5q9-7b4-btv,McDonald's,SG_BRAND_5179b21fc1d50950b99b4eecaa48c614,38.851983,-104.871283,08041001301,08041,Colorado Springs
222-222@5q9-9yv-pd9,McDonald's,SG_BRAND_5179b21fc1d50950b99b4eecaa48c614,39.667897,-104.863246,08005080400,08005,Aurora
222-222@5q9-9z8-hh5,McDonald's,SG_BRAND_5179b21fc1d50950b99b4eecaa48c614,39.641801,-104.828393,08005083900,08005,Aurora
222-222@5q9-9zq-rzf,McDonald's,SG_BRAND_5179b21fc1d50950b99b4eecaa48c614,39.677722,-104.941284,08031004006,08031,Denver
222-222@5q9-b54-6kz,McDonald's,SG_BRAND_5179b21fc1d50950b99b4eecaa48c614,39.599187,-104.803887,08005085000,08005,Aurora
222-222@5q9-b7s-xt9,McDonald's,SG_BRAND_5179b21fc1d50950b99b4eecaa48c614,39.651244,-105.026078,08005005552,08005,Sheridan
222-222@5q9-b8g-7h5,McDonald's,SG_BRAND_5179b21fc1d50950b99b4eecaa48c614,39.622877,-105.111386,08059012042,08059,Dakota Ridge
222-222@5q9-bf3-3wk,McDonald's,SG_BRAND_5179b21fc1d50950b99b4eecaa48c614,39.740741,-104.82196,08001008308,08001,Aurora
222-222@5q9-bf8-b8v,McDonald's,SG_BRAND_5179b21fc1d50950b99b4eecaa48c614,39.72626,-104.822573,08005081800,08005,Aurora
222-222@5qc-wnz-kxq,Subway,SG_BRAND_de80593878cb1673c62a7f338dc7e4e1,40.776796,-112.022536,49035980000,49035,Salt Lake City
222-222@5qc-x2b-m8v,Subway,SG_BRAND_de80593878cb1673c62a7f338dc7e4e1,40.388541,-111.835463,49049000103,49049,Lehi
222-222@5qc-x4k-s89,McDonald's,SG_BRAND_5179b21fc1d50950b99b4eecaa48c614,40.416836,-111.77307,49049010220,49049,Cedar Hills
222-222@5qc-x6w-fpv,McDonald's,SG_BRAND_5179b21fc1d50950b99b4eecaa48c614,40.250024,-111.662465,49049001900,49049,Provo
222-222@5qc-xk9-z4v,Subway,SG_BRAND_de80593878cb1673c62a7f338dc7e4e1,40.527965,-111.85865,49035112805,49035,Draper
222-222@5qd-2h6-dsq,McDonald's,SG_BRAND_5179b21fc1d50950b99b4eecaa48c614,41.229859,-112.006827,49057210505,49057,West Haven
222-222@5qd-376-26k,McDonald's,SG_BRAND_5179b21fc1d50950b99b4eecaa48c614,40.675186,-111.900227,49035112100,49035,Murray
222-222@5qd-392-8qf,McDonald's,SG_BRAND_5179b21fc1d50950b99b4eecaa48c614,40.759133,-111.897355,49035114000,49035,Salt Lake City
222-222@5qd-3pp-6ff,Subway,SG_BRAND_de80593878cb1673c62a7f338dc7e4e1,40.862022,-111.894744,49011126902,49011,Bountiful
222-222@5qg-q9k-dvz,McDonald's,SG_BRAND_5179b21fc1d50950b99b4eecaa48c614,42.763388,-105.401047,56009956500,56009,Douglas
222-222@5qh-f8r-tgk,McDonald's,SG_BRAND_5179b21fc1d50950b99b4eecaa48c614,42.818403,-106.368727,56025000901,56025,Casper
222-222@5qh-syg-yqf,McDonald's,SG_BRAND_5179b21fc1d50950b99b4eecaa48c614,44.291467,-105.530893,56005000500,56005,Gillette
222-222@5qh-syk-8n5,Subway,SG_BRAND_de80593878cb1673c62a7f338dc7e4e1,44.277112,-105.485622,56005000300,56005,Gillette
222-222@5qk-jmg-45f,Subway,SG_BRAND_de80593878cb1673c62a7f338dc7e4e1,40.383088,-104.715363,08123001006,08123,Evans
222-222@5qk-jqt-q9f,McDonald's,SG_BRAND_5179b21fc1d50950b99b4eecaa48c614,40.407645,-105.102158,08069001902,08069,Loveland
222-222@5qk-k73-mc5,McDonald's,SG_BRAND_5179b21fc1d50950b99b4eecaa48c614,39.972693,-104.828123,08001008606,08001,Brighton
222-222@5qk-k7p-z75,McDonald's,SG_BRAND_5179b21fc1d50950b99b4eecaa48c614,39.929672,-104.904053,08001008540,08001,Thornton
222-222@5qk-s2z-nbk,Subway,SG_BRAND_de80593878cb1673c62a7f338dc7e4e1,39.287325,-103.060351,08063962300,08063,Flagler
222-222@5qk-y6x-r6k,McDonald's,SG_BRAND_5179b21fc1d50950b99b4eecaa48c614,40.26575,-103.621127,08087000700,08087,Brush
222-222@5qn-zy9-8d9,McDonald's,SG_BRAND_5179b21fc1d50950b99b4eecaa48c614,41.521203,-109.464563,56037970500,56037,Green River
222-222@5sy-4gr-yy9,Subway,SG_BRAND_de80593878cb1673c62a7f338dc7e4e1,44.787442,-106.943946,56033000100,56033,Sheridan
222-222@5sy-gz7-fmk,Subway,SG_BRAND_de80593878cb1673c62a7f338dc7e4e1,44.750569,-108.761396,56029965200,56029,Powell
222-222@5w9-j2x-3t9,McDonald's,SG_BRAND_5179b21fc1d50950b99b4eecaa48c614,43.500226,-116.394521,16001010401,16001,Kuna
222-222@5w9-j7s-nwk,Subway,SG_BRAND_de80593878cb1673c62a7f338dc7e4e1,43.612075,-116.552303,16027021100,16027,Nampa
222-222@5wf-y6n-xwk,McDonald's,SG_BRAND_5179b21fc1d50950b99b4eecaa48c614,43.804065,-111.80805,16065950302,16065,Rexburg
222-222@5wg-42w-tsq,McDonald's,SG_BRAND_5179b21fc1d50950b99b4eecaa48c614,43.510586,-112.017963,16019970700,16019,Idaho Falls
222-222@5wr-5qq-nwk,Subway,SG_BRAND_de80593878cb1673c62a7f338dc7e4e1,42.593218,-114.748421,16083000300,16083,Buhl
222-222@5ws-h5d-59f,McDonald's,SG_BRAND_5179b21fc1d50950b99b4eecaa48c614,41.74678,-111.833806,49005000600,49005,Logan
222-222@5ws-h63-nkf,Subway,SG_BRAND_de80593878cb1673c62a7f338dc7e4e1,41.764646,-111.833757,49005000401,49005,North Logan
222-222@5ws-mrj-v75,McDonald's,SG_BRAND_5179b21fc1d50950b99b4eecaa48c614,41.713193,-111.839273,49005001002,49005,Logan
222-222@5ws-mt7-kcq,McDonald's,SG_BRAND_5179b21fc1d50950b99b4eecaa48c614,41.633235,-111.832101,49005001401,49005,Hyrum
222-223@5q6-7bm-9j9,Subway,SG_BRAND_de80593878cb1673c62a7f338dc7e4e1,39.854615,-105.081102,08059009833,08059,Arvada
222-223@5q6-7tj-6x5,Subway,SG_BRAND_de80593878cb1673c62a7f338dc7e4e1,40.08714,-104.985529,08123002009,08123,Frederick
222-223@5q9-bfc-7wk,McDonald's,SG_BRAND_5179b21fc1d50950b99b4eecaa48c614,39.76106,-104.791922,08001008309,08001,Aurora
222-223@5qc-xk7-2hq,Subway,SG_BRAND_de80593878cb1673c62a7f338dc7e4e1,40.502644,-111.885942,49035112819,49035,Draper
222-223@5qc-xv2-7yv,McDonald's,SG_BRAND_5179b21fc1d50950b99b4eecaa48c614,40.503772,-111.897509,49035112818,49035,Draper
222-223@5qc-zy5-3qz,Subway,SG_BRAND_de80593878cb1673c62a7f338dc7e4e1,41.088716,-112.026671,49011125406,49011,Clearfield
222-223@5qd-22t-3bk,Subway,SG_BRAND_de80593878cb1673c62a7f338dc7e4e1,41.175697,-112.026557,49057210701,49057,Roy
222-223@5qf-kd5-yjv,Subway,SG_BRAND_de80593878cb1673c62a7f338dc7e4e1,39.09096,-108.453409,08077001705,08077,Clifton
222-223@5w8-htq-pd9,Subway,SG_BRAND_de80593878cb1673c62a7f338dc7e4e1,43.917323,-116.1966,16015950200,16015,Horseshoe Bend
222-223@5wf-zyv-dy9,Subway,SG_BRAND_de80593878cb1673c62a7f338dc7e4e1,43.963789,-111.68255,16043970300,16043,St. Anthony
222-223@5wq-rs5-7wk,Subway,SG_BRAND_de80593878cb1673c62a7f338dc7e4e1,42.564201,-113.791939,16067970200,16067,Burley
222-224@5q9-br2-f9f,Subway,SG_BRAND_de80593878cb1673c62a7f338dc7e4e1,39.786693,-105.108999,08059010402,08059,Wheat Ridge
222-224@5qd-2xs-mc5,Subway,SG_BRAND_de80593878cb1673c62a7f338dc7e4e1,40.724884,-111.54241,49043964307,49043,Snyderville
222-224@5qd-2xy-4sq,Subway,SG_BRAND_de80593878cb1673c62a7f338dc7e4e1,40.755555,-111.570688,49043964303,49043,Summit Park
222-224@5qk-jcm-dqf,Subway,SG_BRAND_de80593878cb1673c62a7f338dc7e4e1,40.15944,-104.938563,08123002020,08123,Firestone
222-224@5qn-zqc-4gk,Subway,SG_BRAND_de80593878cb1673c62a7f338dc7e4e1,41.596579,-109.240722,56037970903,56037,Rock Springs
222-224@5w9-hvx-vfz,Subway,SG_BRAND_de80593878cb1673c62a7f338dc7e4e1,43.664874,-116.280147,16001010223,16001,Garden City
222-224@5wf-y6r-t35,Subway,SG_BRAND_de80593878cb1673c62a7f338dc7e4e1,43.817954,-111.788773,16065950301,16065,Rexburg
222-224@5yy-mj6-835,Subway,SG_BRAND_de80593878cb1673c62a7f338dc7e4e1,37.725755,-113.051378,49021110500,49021,Cedar City
222-225@5q6-7t5-ht9,Subway,SG_BRAND_de80593878cb1673c62a7f338dc7e4e1,39.985742,-105.09422,08013060900,08013,Lafayette
222-225@5q9-b8k-4n5,Subway,SG_BRAND_de80593878cb1673c62a7f338dc7e4e1,39.610012,-105.144623,08059012043,08059,Dakota Ridge
222-225@5qc-99z-gkz,Subway,SG_BRAND_de80593878cb1673c62a7f338dc7e4e1,39.532122,-111.463524,49039972100,49039,Mount Pleasant
222-225@5qc-xjt-fxq,Subway,SG_BRAND_de80593878cb1673c62a7f338dc7e4e1,40.527422,-111.897524,49035112817,49035,Draper
222-225@5w9-hm8-mx5,Subway,SG_BRAND_de80593878cb1673c62a7f338dc7e4e1,43.647772,-116.352446,16001010331,16001,Boise
222-225@5yz-kmr-3h5,Subway,SG_BRAND_de80593878cb1673c62a7f338dc7e4e1,37.000524,-112.999769,49053270100,49053,Hildale
222-226@5q6-7nt-6p9,Subway,SG_BRAND_de80593878cb1673c62a7f338dc7e4e1,40.100795,-105.167885,08013013205,08013,Niwot
222-227@5qk-kq7-gx5,Subway,SG_BRAND_de80593878cb1673c62a7f338dc7e4e1,40.079053,-104.803036,08123001905,08123,Fort Lupton
223-222@3x4-kdy-pn5,McDonald's,SG_BRAND_5179b21fc1d50950b99b4eecaa48c614,48.30076,-116.54569,16017950200,16017,Ponderay
223-222@3x5-4n8-xt9,McDonald's,SG_BRAND_5179b21fc1d50950b99b4eecaa48c614,47.729606,-116.791728,16055000700,16055,Coeur D Alene
223-222@5q5-tfg-ygk,Subway,SG_BRAND_de80593878cb1673c62a7f338dc7e4e1,40.513831,-107.563682,08081000400,08081,Craig
223-222@5q6-3s3-sh5,Subway,SG_BRAND_de80593878cb1673c62a7f338dc7e4e1,39.742042,-105.497779,08019014800,08019,Idaho Springs
223-222@5q6-7cv-dvz,Subway,SG_BRAND_de80593878cb1673c62a7f338dc7e4e1,39.924898,-105.091406,08014031200,08014,Broomfield
223-222@5q9-6zd-87q,Subway,SG_BRAND_de80593878cb1673c62a7f338dc7e4e1,38.93872,-104.757516,08041006802,08041,Colorado Springs
223-222@5q9-9x6-f75,McDonald's,SG_BRAND_5179b21fc1d50950b99b4eecaa48c614,39.624439,-104.903275,08005006712,08005,Denver
223-222@5q9-bnq-h5z,McDonald's,SG_BRAND_5179b21fc1d50950b99b4eecaa48c614,39.740136,-105.039663,08031000701,08031,Denver
223-222@5q9-bqk-rtv,McDonald's,SG_BRAND_5179b21fc1d50950b99b4eecaa48c614,39.741817,-104.988143,08031001702,08031,Denver
223-222@5qb-b2h-zzz,Subway,SG_BRAND_de80593878cb1673c62a7f338dc7e4e1,40.234298,-111.69409,49049002205,49049,Provo
223-222@5qb-y2d-c89,Subway,SG_BRAND_de80593878cb1673c62a7f338dc7e4e1,39.677746,-111.840057,49023010200,49023,Nephi
223-222@5qc-xjz-2tv,McDonald's,SG_BRAND_5179b21fc1d50950b99b4eecaa48c614,40.562685,-111.93793,49035113010,49035,South Jordan
223-222@5qf-kkq-fcq,McDonald's,SG_BRAND_5179b21fc1d50950b99b4eecaa48c614,39.088993,-108.601022,08077000900,08077,Grand Junction
223-222@5qj-8zp-52k,Subway,SG_BRAND_de80593878cb1673c62a7f338dc7e4e1,43.848166,-104.195347,56045951300,56045,Newcastle
223-222@5qk-jk6-5fz,McDonald's,SG_BRAND_5179b21fc1d50950b99b4eecaa48c614,40.580229,-104.996397,08069002501,08069,Fort Collins
223-222@5qk-jny-kfz,Subway,SG_BRAND_de80593878cb1673c62a7f338dc7e4e1,40.421787,-104.759083,08123001414,08123,Greeley
223-222@5qk-k7c-xdv,McDonald's,SG_BRAND_5179b21fc1d50950b99b4eecaa48c614,39.885907,-104.810036,08001008539,08001,Commerce City
223-222@5qp-zwg-bhq,Subway,SG_BRAND_de80593878cb1673c62a7f338dc7e4e1,43.603355,-111.110864,16081960100,16081,Victor
223-222@5sy-q32-m8v,McDonald's,SG_BRAND_5179b21fc1d50950b99b4eecaa48c614,44.016487,-107.945318,56043000302,56043,Worland
223-222@5w9-hrj-nt9,McDonald's,SG_BRAND_5179b21fc1d50950b99b4eecaa48c614,43.648618,-116.665974,16027021300,16027,Caldwell
223-222@5w9-hvy-3nq,McDonald's,SG_BRAND_5179b21fc1d50950b99b4eecaa48c614,43.648807,-116.280363,16001002410,16001,Garden City
223-222@5w9-j7r-fvf,McDonald's,SG_BRAND_5179b21fc1d50950b99b4eecaa48c614,43.614065,-116.593973,16027021002,16027,Nampa
223-222@5wg-426-9zz,McDonald's,SG_BRAND_5179b21fc1d50950b99b4eecaa48c614,43.480222,-111.984042,16019970502,16019,Ammon
223-222@5wq-zkg-xdv,McDonald's,SG_BRAND_5179b21fc1d50950b99b4eecaa48c614,42.922744,-114.711719,16047960100,16047,Gooding
223-222@5wr-7jm-5mk,Subway,SG_BRAND_de80593878cb1673c62a7f338dc7e4e1,42.686528,-114.51789,16053970500,16053,Jerome
223-222@5yy-8jw-ckf,Subway,SG_BRAND_de80593878cb1673c62a7f338dc7e4e1,37.043366,-112.522326,49025130200,49025,Kanab
223-222@5yz-5q2-cwk,McDonald's,SG_BRAND_5179b21fc1d50950b99b4eecaa48c614,38.292757,-112.648057,49001100100,49001,Beaver
223-223@5q9-9yb-qj9,Subway,SG_BRAND_de80593878cb1673c62a7f338dc7e4e1,39.566748,-104.907507,08005006708,08005,Centennial
223-223@5qc-w95-789,McDonald's,SG_BRAND_5179b21fc1d50950b99b4eecaa48c614,40.695518,-112.092545,49035113907,49035,Magna
223-224@5q7-6kt-99f,Subway,SG_BRAND_de80593878cb1673c62a7f338dc7e4e1,40.553715,-105.117814,08069001104,08069,Fort Collins
223-224@5q9-b39-5mk,Subway,SG_BRAND_de80593878cb1673c62a7f338dc7e4e1,39.546274,-104.792654,08035014010,08035,Parker
223-224@5qk-jcw-qmk,Subway,SG_BRAND_de80593878cb1673c62a7f338dc7e4e1,40.190237,-105.131709,08013013207,08013,Longmont
223-226@5q9-bp2-3wk,Subway,SG_BRAND_de80593878cb1673c62a7f338dc7e4e1,39.681757,-105.055219,08031004700,08031,Denver
223-226@5q9-bq2-zzz,Subway,SG_BRAND_de80593878cb1673c62a7f338dc7e4e1,39.689683,-105.118752,08059011709,08059,Lakewood
223-226@5w9-hk9-cqz,Subway,SG_BRAND_de80593878cb1673c62a7f338dc7e4e1,43.665606,-116.412317,16001010331,16001,Eagle
224-222@5q7-3wz-6hq,Subway,SG_BRAND_de80593878cb1673c62a7f338dc7e4e1,41.791911,-107.214235,56007967700,56007,Rawlins
224-222@5q7-6m2-v75,Subway,SG_BRAND_de80593878cb1673c62a7f338dc7e4e1,40.574182,-105.096307,08069000504,08069,Fort Collins
224-222@5q7-zhv-dgk,Subway,SG_BRAND_de80593878cb1673c62a7f338dc7e4e1,38.245163,-104.578649,08101003103,08101,Blende
224-222@5q9-6zc-hwk,McDonald's,SG_BRAND_5179b21fc1d50950b99b4eecaa48c614,38.937842,-104.761321,08041006802,08041,Colorado Springs
224-222@5q9-75d-x89,Subway,SG_BRAND_de80593878cb1673c62a7f338dc7e4e1,38.81312,-104.676455,08041004008,08041,Colorado Springs
224-222@5q9-7f7-835,McDonald's,SG_BRAND_5179b21fc1d50950b99b4eecaa48c614,38.795101,-104.789251,08041004501,08041,Colorado Springs
224-222@5q9-7g4-d35,McDonald's,SG_BRAND_5179b21fc1d50950b99b4eecaa48c614,38.828535,-104.841345,08041002400,08041,Colorado Springs
224-222@5q9-9zj-hbk,McDonald's,SG_BRAND_5179b21fc1d50950b99b4eecaa48c614,39.695115,-104.941146,08031003902,08031,Denver
224-222@5q9-bf4-ghq,Subway,SG_BRAND_de80593878cb1673c62a7f338dc7e4e1,39.739399,-104.809619,08005081900,08005,Aurora
224-222@5q9-bg8-vs5,McDonald's,SG_BRAND_5179b21fc1d50950b99b4eecaa48c614,39.763687,-104.940119,08031004101,08031,Denver
224-222@5qc-mn6-vxq,McDonald's,SG_BRAND_5179b21fc1d50950b99b4eecaa48c614,40.453922,-109.546431,49047968301,49047,Vernal
224-222@5qc-xgs-dqf,Subway,SG_BRAND_de80593878cb1673c62a7f338dc7e4e1,40.275553,-111.725697,49049002201,49049,Orem
224-222@5qc-zy6-gkz,McDonald's,SG_BRAND_5179b21fc1d50950b99b4eecaa48c614,41.076813,-111.974127,49011125805,49011,Layton
224-222@5qd-2dm-v75,McDonald's,SG_BRAND_5179b21fc1d50950b99b4eecaa48c614,40.988513,-111.911366,49011126202,49011,Farmington
224-222@5qd-2hh-nh5,McDonald's,SG_BRAND_5179b21fc1d50950b99b4eecaa48c614,41.306275,-111.969361,49057210304,49057,North Ogden
224-222@5qd-379-7bk,McDonald's,SG_BRAND_5179b21fc1d50950b99b4eecaa48c614,40.725735,-111.864128,49035103300,49035,Salt Lake City
224-222@5qk-j2h-xbk,McDonald's,SG_BRAND_5179b21fc1d50950b99b4eecaa48c614,40.408853,-105.001453,08069001709,08069,Loveland
224-222@5w9-hnw-rx5,Subway,SG_BRAND_de80593878cb1673c62a7f338dc7e4e1,43.590905,-116.36729,16001010313,16001,Meridian
224-222@5w9-j9q-py9,McDonald's,SG_BRAND_5179b21fc1d50950b99b4eecaa48c614,43.596238,-116.194215,16001000900,16001,Boise
224-222@5w9-thm-7bk,Subway,SG_BRAND_de80593878cb1673c62a7f338dc7e4e1,44.06959,-116.922892,16075960200,16075,Payette
224-222@5wg-425-wx5,Subway,SG_BRAND_de80593878cb1673c62a7f338dc7e4e1,43.477399,-111.991124,16019970603,16019,Idaho Falls
224-222@5wj-kyt-h5z,Subway,SG_BRAND_de80593878cb1673c62a7f338dc7e4e1,45.925685,-116.130281,16049960200,16049,Grangeville
224-222@5yz-n7n-3wk,McDonald's,SG_BRAND_5179b21fc1d50950b99b4eecaa48c614,37.087374,-113.584368,49053271400,49053,St George
224-223@5qk-g9z-j7q,Subway,SG_BRAND_de80593878cb1673c62a7f338dc7e4e1,40.351886,-104.70212,08123001700,08123,La Salle
225-222@5q6-79p-bp9,McDonald's,SG_BRAND_5179b21fc1d50950b99b4eecaa48c614,39.83122,-105.02426,08001009501,08001,Westminster
225-222@5q6-7bg-jvz,McDonald's,SG_BRAND_5179b21fc1d50950b99b4eecaa48c614,39.827683,-105.052684,08001009604,08001,Westminster
225-222@5q9-bgt-brk,Subway,SG_BRAND_de80593878cb1673c62a7f338dc7e4e1,39.785027,-104.768578,08031008389,08031,Denver
225-222@5qc-8v8-6zf,Subway,SG_BRAND_de80593878cb1673c62a7f338dc7e4e1,39.364889,-111.586734,49039972400,49039,Ephraim
225-222@5qd-2xs-kfz,McDonald's,SG_BRAND_5179b21fc1d50950b99b4eecaa48c614,40.724948,-111.545344,49043964305,49043,Snyderville
225-222@5qk-jqt-q9f,Subway,SG_BRAND_de80593878cb1673c62a7f338dc7e4e1,40.407566,-105.101358,08069001902,08069,Loveland
225-222@5ws-frx-z4v,Subway,SG_BRAND_de80593878cb1673c62a7f338dc7e4e1,42.184915,-112.23968,16071960100,16071,Malad City
225-222@5ws-h5k-mff,Subway,SG_BRAND_de80593878cb1673c62a7f338dc7e4e1,41.739933,-111.834316,49005000800,49005,Logan
225-222@5yz-ncf-n89,Subway,SG_BRAND_de80593878cb1673c62a7f338dc7e4e1,37.176277,-113.298352,49053270901,49053,Hurricane
225-223@5q9-bq7-jsq,Subway,SG_BRAND_de80593878cb1673c62a7f338dc7e4e1,39.769653,-105.007772,08031001101,08031,Denver
225-223@5yy-mkw-snq,Subway,SG_BRAND_de80593878cb1673c62a7f338dc7e4e1,37.654536,-113.08543,49021110702,49021,Cedar City
225-224@5q9-9xb-jy9,Subway,SG_BRAND_de80593878cb1673c62a7f338dc7e4e1,39.667391,-104.915598,08031006812,08031,Denver
225-224@5qk-wc6-st9,Subway,SG_BRAND_de80593878cb1673c62a7f338dc7e4e1,40.118207,-102.720863,08125963200,08125,Yuma
226-222@5q6-7bq-vzz,Subway,SG_BRAND_de80593878cb1673c62a7f338dc7e4e1,39.842706,-105.109591,08059009835,08059,Arvada
226-222@5q9-72c-vzz,Subway,SG_BRAND_de80593878cb1673c62a7f338dc7e4e1,38.874615,-104.820658,08041000302,08041,Colorado Springs
226-222@5qc-bh7-ffz,McDonald's,SG_BRAND_5179b21fc1d50950b99b4eecaa48c614,41.263184,-110.957019,56041975400,56041,Evanston
226-222@5qc-xjw-vpv,Subway,SG_BRAND_de80593878cb1673c62a7f338dc7e4e1,40.557963,-111.891257,49035112817,49035,Sandy
226-222@5qc-zyg-skf,McDonald's,SG_BRAND_5179b21fc1d50950b99b4eecaa48c614,41.061734,-111.946037,49011125905,49011,Layton
226-222@5qd-2h4-dd9,McDonald's,SG_BRAND_5179b21fc1d50950b99b4eecaa48c614,41.177341,-112.001393,49057210512,49057,Riverdale
226-222@5qd-38t-w8v,Subway,SG_BRAND_de80593878cb1673c62a7f338dc7e4e1,40.755781,-111.900192,49035114000,49035,Salt Lake City
226-222@5qf-kks-5fz,Subway,SG_BRAND_de80593878cb1673c62a7f338dc7e4e1,39.070039,-108.571715,08077000900,08077,Grand Junction
226-222@5w8-z7z-fs5,Subway,SG_BRAND_de80593878cb1673c62a7f338dc7e4e1,45.174125,-113.889476,16059970200,16059,Salmon
226-222@5w9-j9p-rzf,Subway,SG_BRAND_de80593878cb1673c62a7f338dc7e4e1,43.580911,-116.243162,16001001800,16001,Boise
226-222@5yz-n7h-4sq,Subway,SG_BRAND_de80593878cb1673c62a7f338dc7e4e1,37.122379,-113.626077,49053270600,49053,St George
227-222@5q9-9xp-zcq,Subway,SG_BRAND_de80593878cb1673c62a7f338dc7e4e1,39.61559,-104.814229,08005084900,08005,Aurora
227-223@5q9-7nb-kxq,Subway,SG_BRAND_de80593878cb1673c62a7f338dc7e4e1,39.000024,-104.70075,08041007500,08041,Black Forest
227-223@5qk-jjw-fxq,Subway,SG_BRAND_de80593878cb1673c62a7f338dc7e4e1,40.550964,-105.037027,08069001602,08069,Fort Collins
227-224@5qm-px6-cyv,Subway,SG_BRAND_de80593878cb1673c62a7f338dc7e4e1,41.137029,-104.761838,56021000501,56021,Cheyenne
228-222@5qk-gcp-nqz,Subway,SG_BRAND_de80593878cb1673c62a7f338dc7e4e1,40.397425,-104.690705,08123000800,08123,Greeley
228-222@5qm-pww-qfz,Subway,SG_BRAND_de80593878cb1673c62a7f338dc7e4e1,41.159937,-104.796687,56021001402,56021,Cheyenne
228-222@5wd-csq-p9z,McDonald's,SG_BRAND_5179b21fc1d50950b99b4eecaa48c614,46.390454,-116.989229,16069960600,16069,Lewiston
228-226@5q9-bg3-gx5,Subway,SG_BRAND_de80593878cb1673c62a7f338dc7e4e1,39.721056,-104.90323,08031004405,08031,Denver
229-222@5q7-zcx-2c5,Subway,SG_BRAND_de80593878cb1673c62a7f338dc7e4e1,38.306669,-104.598975,08101000905,08101,Pueblo
229-222@5q7-zhz-k4v,Subway,SG_BRAND_de80593878cb1673c62a7f338dc7e4e1,38.273612,-104.608843,08101003500,08101,Pueblo
229-222@5wb-8k8-t35,Subway,SG_BRAND_de80593878cb1673c62a7f338dc7e4e1,43.524801,-114.318669,16013960200,16013,Hailey
22b-222@5qd-37m-cqz,Subway,SG_BRAND_de80593878cb1673c62a7f338dc7e4e1,40.638897,-111.833273,49035111001,49035,Holladay
22b-223@5q8-74n-j35,Subway,SG_BRAND_de80593878cb1673c62a7f338dc7e4e1,38.387806,-105.102457,08043978200,08043,Florence
22b-226@5q9-9xz-k75,Subway,SG_BRAND_de80593878cb1673c62a7f338dc7e4e1,39.611846,-104.988654,08005006604,08005,Littleton
22c-222@5w9-jb6-nnq,Subway,SG_BRAND_de80593878cb1673c62a7f338dc7e4e1,43.63601,-116.274551,16001002410,16001,Boise
22c-222@5w9-jb9-66k,Subway,SG_BRAND_de80593878cb1673c62a7f338dc7e4e1,43.590429,-116.267115,16001001900,16001,Boise
22c-224@5qc-w6d-xwk,Subway,SG_BRAND_de80593878cb1673c62a7f338dc7e4e1,40.610321,-112.004437,49035114300,49035,West Jordan
22f-222@5q9-7hs-gkz,Subway,SG_BRAND_de80593878cb1673c62a7f338dc7e4e1,39.05785,-104.841811,08041007300,08041,Monument
22g-222@5q6-mnw-x3q,Subway,SG_BRAND_de80593878cb1673c62a7f338dc7e4e1,39.519456,-107.31899,08045951702,08045,Glenwood Springs
22g-222@5qd-2h7-yqf,Subway,SG_BRAND_de80593878cb1673c62a7f338dc7e4e1,41.22312,-111.971667,49057201100,49057,Ogden
22g-222@5w9-jb2-gtv,Subway,SG_BRAND_de80593878cb1673c62a7f338dc7e4e1,43.618842,-116.268277,16001001202,16001,Boise
22h-222@5w9-jcw-jn5,Subway,SG_BRAND_de80593878cb1673c62a7f338dc7e4e1,43.590742,-116.312105,16001002224,16001,Boise
22j-222@5qc-wpb-dvz,Subway,SG_BRAND_de80593878cb1673c62a7f338dc7e4e1,40.742573,-111.939838,49035114500,49035,Salt Lake City
22j-226@5q6-sg2-hbk,Subway,SG_BRAND_de80593878cb1673c62a7f338dc7e4e1,39.630403,-106.418734,08037000703,08037,Vail
22n-222@5qf-kkq-h89,Subway,SG_BRAND_de80593878cb1673c62a7f338dc7e4e1,39.095081,-108.605175,08077000900,08077,Grand Junction
22r-222@5q9-vmm-hh5,Subway,SG_BRAND_de80593878cb1673c62a7f338dc7e4e1,39.251751,-106.290977,08065961700,08065,Leadville
233-222@5qc-x2y-tn5,Subway,SG_BRAND_de80593878cb1673c62a7f338dc7e4e1,40.387898,-111.911543,49049010109,49049,Saratoga Springs
236-22k@5qc-w88-cdv,Subway,SG_BRAND_de80593878cb1673c62a7f338dc7e4e1,40.693715,-111.954986,49035113305,49035,West Valley City
23n-22c@5q9-bqm-xbk,Subway,SG_BRAND_de80593878cb1673c62a7f338dc7e4e1,39.748563,-104.997518,08031001701,08031,Denver
247-223@5q9-bgx-pgk,Subway,SG_BRAND_de80593878cb1673c62a7f338dc7e4e1,39.773685,-104.808424,08031008388,08031,Denver
zzw-222@5q6-78f-2tv,Subway,SG_BRAND_de80593878cb1673c62a7f338dc7e4e1,40.006758,-105.271528,08013012300,08013,Boulder
zzw-222@5q6-sg2-jsq,McDonald's,SG_BRAND_5179b21fc1d50950b99b4eecaa48c614,39.629822,-106.419229,08037000703,08037,Vail
zzw-222@5q7-byv-ckf,Subway,SG_BRAND_de80593878cb1673c62a7f338dc7e4e1,41.100187,-104.848793,56021000300,56021,Cheyenne
zzw-222@5q7-yxm-y5f,McDonald's,SG_BRAND_5179b21fc1d50950b99b4eecaa48c614,38.233425,-104.662942,08101002801,08101,Pueblo
zzw-222@5q9-6ps-vzz,Subway,SG_BRAND_de80593878cb1673c62a7f338dc7e4e1,39.412873,-104.893508,08035014405,08035,Castle Rock
zzw-222@5q9-726-d9z,Subway,SG_BRAND_de80593878cb1673c62a7f338dc7e4e1,38.930414,-104.865701,08041003707,08041,Colorado Springs
zzw-222@5q9-7d4-p5f,Subway,SG_BRAND_de80593878cb1673c62a7f338dc7e4e1,38.739673,-104.791996,08041004402,08041,Fort Carson
zzw-222@5q9-7nq-grk,McDonald's,SG_BRAND_5179b21fc1d50950b99b4eecaa48c614,38.937585,-104.610066,08041005104,08041,Peyton
zzw-222@5q9-9wz-fmk,Subway,SG_BRAND_de80593878cb1673c62a7f338dc7e4e1,39.637261,-104.896838,08031006809,08031,Denver
zzw-222@5q9-9x2-249,Subway,SG_BRAND_de80593878cb1673c62a7f338dc7e4e1,39.652859,-104.903458,08031006809,08031,Denver
zzw-222@5q9-bqq-j5f,McDonald's,SG_BRAND_5179b21fc1d50950b99b4eecaa48c614,39.739637,-105.004731,08031001901,08031,Denver
zzw-222@5qb-fvh-4gk,Subway,SG_BRAND_de80593878cb1673c62a7f338dc7e4e1,40.487831,-111.408682,49051940500,49051,Heber
zzw-222@5qc-xmf-x89,Subway,SG_BRAND_de80593878cb1673c62a7f338dc7e4e1,40.587815,-111.892373,49035112605,49035,Sandy
zzw-222@5qd-2gs-zj9,Subway,SG_BRAND_de80593878cb1673c62a7f338dc7e4e1,41.268195,-112.02851,49057210404,49057,Marriott-Slaterville
zzw-222@5qd-37f-q4v,Subway,SG_BRAND_de80593878cb1673c62a7f338dc7e4e1,40.66705,-111.839083,49035110800,49035,Holladay
zzw-222@5qd-37j-8d9,McDonald's,SG_BRAND_5179b21fc1d50950b99b4eecaa48c614,40.643801,-111.888429,49035112301,49035,Murray
zzw-222@5qf-xdd-s89,McDonald's,SG_BRAND_5179b21fc1d50950b99b4eecaa48c614,38.454723,-107.866845,08085966501,08085,Montrose
zzw-222@5qk-j3j-t7q,Subway,SG_BRAND_de80593878cb1673c62a7f338dc7e4e1,40.420278,-105.073527,08069001706,08069,Loveland
zzw-222@5w9-pgy-4vz,McDonald's,SG_BRAND_5179b21fc1d50950b99b4eecaa48c614,43.137034,-115.664253,16039960300,16039,Mountain Home
zzw-222@5w9-vnr-26k,McDonald's,SG_BRAND_5179b21fc1d50950b99b4eecaa48c614,44.246076,-116.963503,16087970200,16087,Weiser
zzw-222@5wg-5f9-zs5,Subway,SG_BRAND_de80593878cb1673c62a7f338dc7e4e1,43.669705,-111.91519,16051960300,16051,Rigby
zzw-222@5wh-bhw-ty9,Subway,SG_BRAND_de80593878cb1673c62a7f338dc7e4e1,47.545804,-116.131559,16079960300,16079,Kellogg
zzw-222@5wr-7m2-3t9,McDonald's,SG_BRAND_5179b21fc1d50950b99b4eecaa48c614,42.592312,-114.461109,16083000700,16083,Twin Falls
zzw-222@5ws-h5d-n89,Subway,SG_BRAND_de80593878cb1673c62a7f338dc7e4e1,41.742974,-111.813397,49005000702,49005,Logan
zzw-222@5yy-b84-7wk,Subway,SG_BRAND_de80593878cb1673c62a7f338dc7e4e1,37.223836,-112.681365,49025130100,49025,Orderville
zzw-223@5q8-yyc-6kz,Subway,SG_BRAND_de80593878cb1673c62a7f338dc7e4e1,37.616957,-104.756496,08055960600,08055,Walsenburg
zzw-223@5q9-7b2-yqf,Subway,SG_BRAND_de80593878cb1673c62a7f338dc7e4e1,38.857028,-104.898605,08041006700,08041,Manitou Springs
